{"type":"FeatureCollection","features":[{"type":"Feature","id":"node/251125922","properties":{"amenity":"pub","brewery":"eidelweiss;Kith and Kin;Caledonian;Pelforth;Strongbow;Heineken","email":"newauldalliance@orange.fr","happy_hours":"Mo-Fr 15:00-20:00","name":"The Auld Alliance","opening_hours":"Mo-Fr 15:00-02:00; Sa-Su 12:00-02:00","phone":"+33 1 48 04 30 40","website":"https://theauldalliance.com/","id":"node/251125922"},"geometry":{"type":"Point","coordinates":[2.3591057,48.8553135]}},{"type":"Feature","id":"node/251126259","properties":{"amenity":"pub","internet_access":"yes","name":"Le Lizard Lounge","wheelchair":"no","id":"node/251126259"},"geometry":{"type":"Point","coordinates":[2.3563278,48.8573914]}},{"type":"Feature","id":"node/251126442","properties":{"addr:city":"Paris","addr:housenumber":"16","addr:postcode":"75001","addr:street":"Rue Cloche Perce","amenity":"pub","name":"Stolly's","name:fr":"Stolly's","opening_hours":"Mo-Fr 16:30-01:30; Sa-Su 14:30-01:30","outdoor_seating":"yes","id":"node/251126442"},"geometry":{"type":"Point","coordinates":[2.3573515,48.8563917]}},{"type":"Feature","id":"node/251474112","properties":{"addr:city":"Paris","addr:housenumber":"3","addr:postcode":"75005","addr:street":"Rue du Petit Pont","amenity":"pub","check_date":"2023-09-03","name":"Polly Maggoo","wheelchair":"no","id":"node/251474112"},"geometry":{"type":"Point","coordinates":[2.3467191,48.8526093]}},{"type":"Feature","id":"node/251474114","properties":{"amenity":"pub","brewery":"various","happy_hours":"Mo-Su 18:00-21:00","internet_access":"wlan","name":"Drunken Bunny","opening_hours":"Mo-Su 18:00-02:00","payment:cash":"yes","payment:mastercard":"yes","payment:visa":"yes","phone":"+33 1 42 72 73 36","smoking":"outside","website":"https://www.drunkenbunny.fr/","id":"node/251474114"},"geometry":{"type":"Point","coordinates":[2.3495493,48.8429884]}},{"type":"Feature","id":"node/251474115","properties":{"amenity":"pub","brewery":"Tripel Karmeliet;Delirium;Chouffe","name":"Le Vieux Chêne","opening_hours":"16:00-02:00","smoking":"outside","id":"node/251474115"},"geometry":{"type":"Point","coordinates":[2.3498473,48.8423393]}},{"type":"Feature","id":"node/251474117","properties":{"addr:city":"Paris","addr:country":"FR","addr:housenumber":"18","addr:postcode":"75005","addr:street":"Rue Laplace","amenity":"pub","brewery":"Brewdog Punk IPA;Carolus Triple;Grolsch;Kasteel Rouge;Page 24 réserve Blonde Hildegarde;Page Brune;Saint Bernardus;St. Stefanus;Tripel Karmeliet","level":"0","name":"Tata Monique","outdoor_seating":"no","phone":"+33 1 43 54 42 32","toilets":"yes","wheelchair":"no","id":"node/251474117"},"geometry":{"type":"Point","coordinates":[2.3471555,48.8474659]}},{"type":"Feature","id":"node/252958952","properties":{"amenity":"pub","brewery":"Frog Natural Blonde","contact:city":"Paris","contact:housenumber":"110 bis","contact:phone":"+33 1 47 27 88 88","contact:postcode":"75116","contact:street":"Avenue Kléber","contact:website":"https://www.frogpubs.com/fr/pub-XVI-paris.php","diet:vegan":"yes","microbrewery":"yes","name":"Frog XVI","survey:date":"2023-08-04","terrace":"yes","toilets:wheelchair":"yes","wheelchair":"limited","id":"node/252958952"},"geometry":{"type":"Point","coordinates":[2.2880988,48.8646895]}},{"type":"Feature","id":"node/252961401","properties":{"addr:city":"Paris","addr:housenumber":"71","addr:postcode":"75017","addr:street":"Boulevard Gouvion-Saint-Cyr","amenity":"pub","name":"The Canadian Embassy Pub","smoking":"no","website":"https://thecanadianembassypub.business.site/","wheelchair":"no","id":"node/252961401"},"geometry":{"type":"Point","coordinates":[2.2852551,48.8802602]}},{"type":"Feature","id":"node/254005128","properties":{"amenity":"pub","brewery":"Guinness;Smithwick's","name":"The Quiet Man","opening_hours":"Mo-Sa 17:00-02:00","wheelchair":"limited","id":"node/254005128"},"geometry":{"type":"Point","coordinates":[2.357569,48.8614833]}},{"type":"Feature","id":"node/268058006","properties":{"amenity":"pub","name":"Forum Café","id":"node/268058006"},"geometry":{"type":"Point","coordinates":[2.3238386,48.8460429]}},{"type":"Feature","id":"node/293986548","properties":{"amenity":"pub","name":"Atelier 103","id":"node/293986548"},"geometry":{"type":"Point","coordinates":[2.3860891,48.8632455]}},{"type":"Feature","id":"node/310363627","properties":{"amenity":"pub","indoor_seating":"yes","name":"L'Inévitable","outdoor_seating":"yes","id":"node/310363627"},"geometry":{"type":"Point","coordinates":[2.3548324,48.8454309]}},{"type":"Feature","id":"node/315769031","properties":{"amenity":"pub","cuisine":"french","indoor_seating":"yes","name":"Le Comptoir du Relais","opening_hours":"Mo-Su 12:00-23:00","outdoor_seating":"yes","id":"node/315769031"},"geometry":{"type":"Point","coordinates":[2.3388319,48.8519626]}},{"type":"Feature","id":"node/319695790","properties":{"amenity":"pub","brewery":"various","changing_table":"no","internet_access":"no","level":"0","name":"The Lions","opening_hours":"Mo 11:00-00:00; Tu-We 11:00-01:00; Th-Fr 11:00-02:00; Sa 19:00-02:00; Su 19:00-00:00","outdoor_seating":"no","phone":"+33 1 73 75 86 13","smoking":"outside","toilets":"yes","toilets:access":"customers","toilets:disposal":"flush","toilets:handwashing":"yes","toilets:paper_supplied":"yes","toilets:position":"seated;urinal","toilets:wheelchair":"no","website":"https://www.thelionsparis.fr/","wheelchair":"limited","id":"node/319695790"},"geometry":{"type":"Point","coordinates":[2.371249,48.8324164]}},{"type":"Feature","id":"node/329135152","properties":{"amenity":"pub","brewery":"Delirium Tremens;Pelforth;Kilkenny","cuisine":"irish","happy_hours":"Mo-Fr 18:00-20:00","name":"Little Temple Bar","opening_hours":"Mo-Fr 17:00-02:00, Sa-Su 15:00-02:00","wheelchair":"limited","id":"node/329135152"},"geometry":{"type":"Point","coordinates":[2.3344273,48.8522494]}},{"type":"Feature","id":"node/418080841","properties":{"addr:city":"Paris","addr:housenumber":"111","addr:postcode":"75011","addr:street":"Rue Saint-Maur","amenity":"pub","contact:email":"contact@lebap.fr","description":"Bar à jeux avec 10 billards, 3 baby foots, des fléchettes. Diffusion d'événements sportifs sur grands écrans","internet_access":"wlan","name":"Le bap","opening_hours":"Tu-Th, Su 17:00-02:00; Fr, Sa 17:00-04:00","phone":"+33 1 43 55 87 21","smoking":"outside","source":"survey","website":"https://www.lebap.fr/","id":"node/418080841"},"geometry":{"type":"Point","coordinates":[2.3769721,48.8658873]}},{"type":"Feature","id":"node/418142760","properties":{"amenity":"pub","check_date":"2022-07-21","name":"Onze bar","id":"node/418142760"},"geometry":{"type":"Point","coordinates":[2.3782452,48.8681035]}},{"type":"Feature","id":"node/420117472","properties":{"amenity":"pub","brewery":"leffe","name":"L'Escargot","id":"node/420117472"},"geometry":{"type":"Point","coordinates":[2.3879568,48.877031]}},{"type":"Feature","id":"node/428043446","properties":{"amenity":"pub","check_date":"2023-08-12","contact:city":"Paris","contact:facebook":"https://www.facebook.com/lescuvesdefauve/","contact:housenumber":"64-66","contact:instagram":"https://www.instagram.com/fauvebiere","contact:postcode":"75011","contact:street":"Rue de Charonne","contact:twitter":"https://twitter.com/fauvebiere","contact:untappd":"https://untappd.com/fauvebiere","contact:website":"https://fauvebiere.com/","microbrewery":"yes","name":"Les Cuves de Fauve","opening_hours":"Mo-Fr 17:30-02:00, Sa,Su 11:30-02:00","outdoor_seating":"yes","id":"node/428043446"},"geometry":{"type":"Point","coordinates":[2.3791647,48.8532862]}},{"type":"Feature","id":"node/428044663","properties":{"amenity":"pub","brewery":"Guinness;Goudale;Saint Landelin;Saint-omer;Belzébuth;Ginebra","contact:facebook":"https://fr-fr.facebook.com/Le-Bar-%C3%A0-Mines-239042106281655/","happy_hours":"Mo-Sa 17:00-21:00","name":"Le Bar à Mines","old_name":"La crosse","opening_hours":"Mo-Sa 16:00-02:00","sport":"table_tennis;table_soccer","id":"node/428044663"},"geometry":{"type":"Point","coordinates":[2.3743781,48.8494366]}},{"type":"Feature","id":"node/441162564","properties":{"addr:city":"Malakoff","addr:housenumber":"1","addr:postcode":"92240","addr:street":"Rue Rouget de l'Isle","amenity":"pub","brewery":"Carlberg;1664;1664 white;Grimbergen blonde;Gueuze Saint Louis;Cuvée des trolls;Delirium Tremens;Delirium red;St Idesbald blonde;St Idesbald brune;Artevelde ambrée;Barge du canal I.P.A.","check_date":"2024-02-25","internet_access":"no","name":"Le Timbre Poste","opening_hours":"09:00-02:00","outdoor_seating":"yes","phone":"+33 1 46 56 79 69","toilets":"yes","website":"https://www.autimbreposte.com","wheelchair":"limited","id":"node/441162564"},"geometry":{"type":"Point","coordinates":[2.3042851,48.8239093]}},{"type":"Feature","id":"node/442349636","properties":{"amenity":"pub","check_date":"2023-11-05","name":"Le Pub","opening_hours":"Mo-Sa 10:00-24:00; Su 11:00-22:00","phone":"+33146977004","id":"node/442349636"},"geometry":{"type":"Point","coordinates":[2.2270778,48.8692038]}},{"type":"Feature","id":"node/446779465","properties":{"amenity":"pub","name":"Les Buttes Chaumont","id":"node/446779465"},"geometry":{"type":"Point","coordinates":[2.3823708,48.8753855]}},{"type":"Feature","id":"node/446887015","properties":{"amenity":"pub","brewery":"Kilkenny;Kronenbourg;1664;Grimbergen;Grimbergen_Blanche;Guinness;Carlsberg","contact:city":"Paris","contact:housenumber":"176","contact:phone":"+33 1 45 05 14 23","contact:postcode":"75116","contact:street":"Rue de la Pompe","contact:website":"http://pub-honestlawyer.zenchef.com/","cuisine":"burger","internet_access":"yes","name":"The Honest Lawyer","opening_hours":"Mo-Fr 06:30-01:00, Sa 09:00-01:00","outdoor_seating":"yes","smoking":"outside","id":"node/446887015"},"geometry":{"type":"Point","coordinates":[2.283673,48.8711393]}},{"type":"Feature","id":"node/449554298","properties":{"amenity":"pub","brewery":"guinness;Guinness","name":"Brady's Irish Pub","id":"node/449554298"},"geometry":{"type":"Point","coordinates":[2.3157284,48.8778514]}},{"type":"Feature","id":"node/452420245","properties":{"amenity":"pub","brewery":"Kwak","check_date":"2023-08-18","indoor_seating":"yes","name":"Tête à l'Envers","opening_hours":"Mo-Su 09:00-01:00","outdoor_seating":"yes","wheelchair":"yes","id":"node/452420245"},"geometry":{"type":"Point","coordinates":[2.4403061,48.844616]}},{"type":"Feature","id":"node/470330229","properties":{"amenity":"pub","happy_hours":"17:00-22:00","name":"Le Post","id":"node/470330229"},"geometry":{"type":"Point","coordinates":[2.3049498,48.834658]}},{"type":"Feature","id":"node/471575730","properties":{"amenity":"pub","name":"Le Village","wheelchair":"limited","id":"node/471575730"},"geometry":{"type":"Point","coordinates":[2.4713196,48.8471938]}},{"type":"Feature","id":"node/486096218","properties":{"addr:housenumber":"26","addr:postcode":"75012","addr:street":"Place de la Nation","amenity":"pub","brewery":"Guinness;mort subite;Murphy's Irish Red;Kriek;Maes ;Ciney","check_date:opening_hours":"2022-07-29","cuisine":"burger;pizza","happy_hours":"Mo-Su 17:00-20:00","indoor_seating":"yes","level":"0","name":"Irish Corner","opening_hours":"Mo-Su 11:00-24:00","outdoor_seating":"yes","smoking":"outside","toilets:disposal":"flush","toilets:position":"seated;urinal","toilets:wheelchair":"no","website":"http://www.irishpubnation.fr","wheelchair":"limited","id":"node/486096218"},"geometry":{"type":"Point","coordinates":[2.3970587,48.847497]}},{"type":"Feature","id":"node/536574152","properties":{"addr:city":"Paris","addr:housenumber":"114","addr:postcode":"75013","addr:street":"Avenue de France","amenity":"pub","brewery":"Parislytic;Hopster;Pearl;White Rhubarb","changing_table":"yes","changing_table:count":"1","changing_table:fee":"yes","changing_table:location":"wheelchair_toilet","cuisine":"burger;fish_and_chips","diet:vegetarian":"yes","happy_hours":"Mo-Fr 17:30-20:00","indoor_seating":"yes","internet_access":"wlan","internet_access:fee":"no","level":"0","microbrewery":"yes","name":"The Frog & British Library","opening_hours":"Su-We 08:00-01:00, Th-Sa 08:00-02:00","opening_hours:covid19":"off","operator":"FrogPubs","outdoor_seating":"yes","phone":"+33 1 45 84 34 26","smoking":"outside","terrace":"yes","toilets":"yes","toilets:access":"customers","toilets:position":"seated;urinal","toilets:wheelchair":"designated","website":"https://www.frogpubs.com/fr/pub-british-library-paris.php","wheelchair":"yes","id":"node/536574152"},"geometry":{"type":"Point","coordinates":[2.3767781,48.8308857]}},{"type":"Feature","id":"node/582552434","properties":{"amenity":"pub","indoor_seating":"yes","name":"Campanela","outdoor_seating":"yes","source":"survey","id":"node/582552434"},"geometry":{"type":"Point","coordinates":[2.3032822,48.8585847]}},{"type":"Feature","id":"node/586568216","properties":{"addr:city":"Paris","addr:housenumber":"9","addr:postcode":"75004","addr:street":"Rue du Pas de la Mule","amenity":"pub","internet_access":"yes","name":"Café Martini","wheelchair":"no","id":"node/586568216"},"geometry":{"type":"Point","coordinates":[2.3670811,48.8559133]}},{"type":"Feature","id":"node/609212551","properties":{"amenity":"pub","brewery":"Inseine;Maison Blanche;Ginger Twist;Dark de Triomphe;Wham;Tha Wack","changing_table":"yes","contact:city":"Paris","contact:housenumber":"25","contact:postcode":"75012","contact:street":"Cour Saint-Émilion","cuisine":"burger","diet:vegetarian":"yes","happy_hours":"Mo-Fr 17:00-20:00","indoor_seating":"yes","level":"0","microbrewery":"yes","name":"The Frog","opening_hours":"Mo-Su 12:00-02:00","operator":"FrogPubs","outdoor_seating":"yes","phone":"+33 1 43 40 70 71","smoking":"outside","terrace":"yes","toilets":"yes","toilets:disposal":"flush","toilets:position":"urinal;seated","toilets:wheelchair":"designated","website":"https://www.frogpubs.com/fr/pub-bercy-village-paris.php","wheelchair":"yes","id":"node/609212551"},"geometry":{"type":"Point","coordinates":[2.3861988,48.8329893]}},{"type":"Feature","id":"node/617541036","properties":{"addr:city":"Paris","addr:housenumber":"101","addr:postcode":"75017","addr:street":"Rue des Dames","amenity":"pub","brewery":"various","name":"3 Pièces Cuisine","opening_hours":"Mo-Su 12:00-19:00","outdoor_seating":"no","wheelchair":"yes","id":"node/617541036"},"geometry":{"type":"Point","coordinates":[2.3181031,48.8829327]}},{"type":"Feature","id":"node/623423905","properties":{"addr:housenumber":"3","addr:postcode":"75014","addr:street":"Place Denfert-Rochereau","amenity":"pub","amenity2":"nightclub","brewery":"various","contact:facebook":"CafeOzDenfert","contact:instagram":"cafeozdenfert","cuisine":"australian","diet:vegan":"no","diet:vegetarian":"yes","email":"denfert@cafe-oz.com","happy_hours":"Mo-Su 16:00-20:00","name":"Café Oz","opening_hours":"Mo 00:00-02:00,12:00-24:00; Tu 00:00-02:00,12:00-24:00; We 00:00-03:00,12:00-24:00; Th 00:00-03:00,12:00-24:00; Fr 00:00-05:00,12:00-24:00; Sa 00:00-05:00,12:00-24:00; Su 00:00-05:00,11:00-24:00","opening_hours:kitchen":"Mo-Sa 12:00-21:00; Su 11:00-21:00","outdoor_seating":"yes","phone":"+33 1 45 38 76 77;06 16 47 35 13","website":"https://cafe-oz.com/denfert-rochereau.html","wheelchair":"yes","id":"node/623423905"},"geometry":{"type":"Point","coordinates":[2.3338394,48.8332913]}},{"type":"Feature","id":"node/624613486","properties":{"amenity":"pub","brewery":"Guinness","check_date":"2023-12-22","name":"The Green Linnet","source":"cadastre-dgi-fr source : Direction Générale des Impôts - Cadastre ; mise à jour : 2010","id":"node/624613486"},"geometry":{"type":"Point","coordinates":[2.3496561,48.8573781]}},{"type":"Feature","id":"node/653878922","properties":{"addr:postcode":"75018","amenity":"pub","name":"Au Rendez-Vous des Amis","id":"node/653878922"},"geometry":{"type":"Point","coordinates":[2.340554,48.8857211]}},{"type":"Feature","id":"node/667526203","properties":{"amenity":"pub","name":"Le Fontenoy","phone":"+33 1 40 93 45 43","id":"node/667526203"},"geometry":{"type":"Point","coordinates":[2.2823683,48.8289093]}},{"type":"Feature","id":"node/669075496","properties":{"amenity":"pub","check_date":"2023-05-14","name":"Le Brazza","source":"knowledge","id":"node/669075496"},"geometry":{"type":"Point","coordinates":[2.2982482,48.8383289]}},{"type":"Feature","id":"node/676116667","properties":{"addr:housenumber":"6","addr:postcode":"75006","addr:street":"Rue Laplace","amenity":"pub","name":"Le Piano Vache","opening_hours":"Mo-Fr 12:00-02:00, Sa 18:00-02:00","id":"node/676116667"},"geometry":{"type":"Point","coordinates":[2.3476898,48.8473039]}},{"type":"Feature","id":"node/676116669","properties":{"addr:city":"Paris","addr:housenumber":"10","addr:postcode":"75005","addr:street":"Rue Descartes","amenity":"pub","brewery":"Guinness;Grimbergen;IPA;Picon","check_date":"2023-07-16","name":"Le Melocoton","id":"node/676116669"},"geometry":{"type":"Point","coordinates":[2.3486564,48.8470809]}},{"type":"Feature","id":"node/676860175","properties":{"addr:city":"Paris","addr:housenumber":"9","addr:postcode":"75001","addr:street":"Rue Saint-Denis","amenity":"pub","contact:instagram":"tikiplayaparis","description":"Anciennement : The drink doctor, Le petit Chatelet et le Baltard","indoor_seating":"yes","name":"Tiki playa","old_name":"Le Baltard","old_name:2018-2023":"The drink doctor","opening_hours":"Mo-Fr 15:00-02:00","outdoor_seating":"no","phone":"+33 7 56 83 52 72","smoking":"no","source":"cadastre-dgi-fr source : Direction Générale des Impôts - Cadastre. Mise à jour : 2010","toilets:wheelchair":"no","website":"https://www.tiki-playa.com/","wheelchair":"no","id":"node/676860175"},"geometry":{"type":"Point","coordinates":[2.3476222,48.859248]}},{"type":"Feature","id":"node/683603985","properties":{"addr:city":"Paris","addr:housenumber":"2","addr:postcode":"75005","addr:street":"Rue Valette","amenity":"pub","happy_hours":"Mo-Sa 16:00-21:00","name":"Le Pub Saint-Hillaire","opening_hours":"Mo-Th 16:00-02:00; Fr, Sa 16:00-04:00","wheelchair":"no","id":"node/683603985"},"geometry":{"type":"Point","coordinates":[2.3469127,48.8480996]}},{"type":"Feature","id":"node/702973627","properties":{"amenity":"pub","name":"À Vaugirard","id":"node/702973627"},"geometry":{"type":"Point","coordinates":[2.3006446,48.8394881]}},{"type":"Feature","id":"node/707856537","properties":{"amenity":"pub","check_date":"2024-01-29","indoor_seating":"yes","name":"Tribal Café","opening_hours:signed":"no","outdoor_seating":"yes","smoking":"outside","wheelchair":"yes","id":"node/707856537"},"geometry":{"type":"Point","coordinates":[2.353512,48.872304]}},{"type":"Feature","id":"node/733174289","properties":{"amenity":"pub","contact:city":"Paris","contact:housenumber":"10","contact:postcode":"75002","contact:street":"Rue des Capucines","name":"Frog Hop House","toilets:wheelchair":"no","wheelchair":"no","wheelchair:description":"DEFINITEVEMENT FERME!","id":"node/733174289"},"geometry":{"type":"Point","coordinates":[2.3296085,48.8689003]}},{"type":"Feature","id":"node/735171923","properties":{"amenity":"pub","check_date":"2023-04-16","name":"Les Artistes du Faubourg","id":"node/735171923"},"geometry":{"type":"Point","coordinates":[2.3656516,48.8817041]}},{"type":"Feature","id":"node/735462834","properties":{"amenity":"pub","level":"0","name":"Metro Bar","source":"survey 11/2017","id":"node/735462834"},"geometry":{"type":"Point","coordinates":[2.3657978,48.8814024]}},{"type":"Feature","id":"node/741213238","properties":{"amenity":"pub","brewery":"Barbãr Bok;Queue De Charrue;Faro;Cuvée Des Trolls","contact:city":"Paris","contact:housenumber":"88 bis","contact:phone":"+33 1 43 54 66 65","contact:postcode":"75005","contact:street":"Boulevard de Port-Royal","contact:website":"https://www.academie-biere.com/","happy_hours":"Mo-Su 15:00-20:00","name":"Académie de la Bière","opening_hours":"Su-Th 11:30-02:00; Fr-Sa 11:30-03:00","outdoor_seating":"yes","id":"node/741213238"},"geometry":{"type":"Point","coordinates":[2.3390608,48.8392442]}},{"type":"Feature","id":"node/745086544","properties":{"amenity":"pub","brewery":"Chimay triple;Barbãr;Barbãr Bok;Petrus ambrée;Petrus","cuisine":"french","description":"Large et bon choix de bières. Planches, croque-monsieurs, Welshs à manger.","name":"Le Bouillon Belge","opening_hours":"Mo-Sa 17:00-02:00; Su 17:00-24:00","payment:cash":"yes","payment:credit_cards":"yes","payment:debit_cards":"yes","wheelchair":"limited","id":"node/745086544"},"geometry":{"type":"Point","coordinates":[2.3993968,48.8520344]}},{"type":"Feature","id":"node/787964024","properties":{"amenity":"pub","happy_hours":"18:00-21:00","name":"Shannon Pub","opening_hours":"Mo-Sa 18:00-04:30, Su 19:00-04:30","wheelchair":"no","id":"node/787964024"},"geometry":{"type":"Point","coordinates":[2.3298989,48.8426139]}},{"type":"Feature","id":"node/815764595","properties":{"amenity":"pub","name":"The Cricketer","phone":"+33 1 40 07 01 45","source":"cadastre-dgi-fr source : Direction Générale des Impôts - Cadastre. Mise à jour : 2010","id":"node/815764595"},"geometry":{"type":"Point","coordinates":[2.3241335,48.8732551]}},{"type":"Feature","id":"node/828138856","properties":{"amenity":"pub","name":"The Bowler","source":"cadastre-dgi-fr source : Direction Générale des Impôts - Cadastre. Mise à jour : 2010","id":"node/828138856"},"geometry":{"type":"Point","coordinates":[2.3074334,48.8729879]}},{"type":"Feature","id":"node/906036878","properties":{"addr:housenumber":"13","addr:postcode":"75011","addr:street":"Rue Daval","amenity":"pub","brewery":"Saint-Omer","internet_access":"no","name":"Au Lèche Vin","opening_hours":"18:00-02:00","phone":"+33143559891","id":"node/906036878"},"geometry":{"type":"Point","coordinates":[2.370733,48.854971]}},{"type":"Feature","id":"node/921881553","properties":{"addr:city":"Paris","addr:housenumber":"200","addr:postcode":"75010","addr:street":"Quai de Valmy","amenity":"pub","brewery":"Grolsch","internet_access":"no","name":"Le Point Ephémère","opening_hours":"Mo-Sa 12:00-02:00, Su 14:00-24:00","phone":"+33 1 40 34 02 48","website":"https://www.pointephemere.org/","wikidata":"Q3393486","id":"node/921881553"},"geometry":{"type":"Point","coordinates":[2.3685729,48.8815168]}},{"type":"Feature","id":"node/974136692","properties":{"addr:housenumber":"21","addr:street":"Cours de l'Île Seguin","amenity":"pub","cuisine":"burger;bagel;hot_dog;donut","internet_access":"wlan","name":"Doddy's Coffee","opening_hours":"Mo-Sa 11:00-24:00; Su 11:00-21:30","phone":"+33 9 50 30 92 84","smoking":"no","source":"survey","website":"http://www.doddyscoffee.com","id":"node/974136692"},"geometry":{"type":"Point","coordinates":[2.2356895,48.8282346]}},{"type":"Feature","id":"node/998667382","properties":{"amenity":"pub","name":"Saint-John's","opening_hours":"Mo-Fr 09:00-02:00, Sa,Su 10:00-02:00","phone":"+33 1 47 38 11 36","id":"node/998667382"},"geometry":{"type":"Point","coordinates":[2.2576546,48.8860409]}},{"type":"Feature","id":"node/1020780010","properties":{"amenity":"pub","check_date":"2024-02-15","check_date:opening_hours":"2023-04-01","indoor_seating":"yes","name":"Floréal","opening_hours:signed":"no","outdoor_seating":"yes","payment:credit_cards":"yes","payment:debit_cards":"yes","id":"node/1020780010"},"geometry":{"type":"Point","coordinates":[2.371151,48.8701564]}},{"type":"Feature","id":"node/1035711035","properties":{"amenity":"pub","check_date":"2023-05-08","name":"Au rendez-vous des chauffeurs","wheelchair":"yes","id":"node/1035711035"},"geometry":{"type":"Point","coordinates":[2.3626862,48.8862598]}},{"type":"Feature","id":"node/1035728774","properties":{"amenity":"pub","check_date":"2023-05-08","name":"Angkor","id":"node/1035728774"},"geometry":{"type":"Point","coordinates":[2.3683274,48.8897668]}},{"type":"Feature","id":"node/1046316249","properties":{"amenity":"pub","name":"Nord Nord","source":"Observations personnelles","start_date":"2019","id":"node/1046316249"},"geometry":{"type":"Point","coordinates":[2.3629443,48.8900187]}},{"type":"Feature","id":"node/1054432204","properties":{"amenity":"pub","brewery":"pilsner","brewery:note":"pilsner","name":"Garden Café","source":"survey","id":"node/1054432204"},"geometry":{"type":"Point","coordinates":[2.2529663,48.8321896]}},{"type":"Feature","id":"node/1111551181","properties":{"amenity":"pub","id":"node/1111551181"},"geometry":{"type":"Point","coordinates":[2.2839025,48.8938553]}},{"type":"Feature","id":"node/1126088147","properties":{"amenity":"pub","brewery":"Akerbeltz ambrée","contact:city":"Paris","contact:housenumber":"79","contact:postcode":"75001","contact:street":"Rue Saint-Honoré","cuisine":"french","indoor_seating":"yes","internet_access":"no","name":"L'express Bar","outdoor_seating":"yes","smoking":"outside","survey:date":"2022-03-14","id":"node/1126088147"},"geometry":{"type":"Point","coordinates":[2.3438634,48.8611429]}},{"type":"Feature","id":"node/1134402749","properties":{"amenity":"pub","name":"Hurling Pub","source":"cadastre-dgi-fr source : Direction Générale des Impôts - Cadastre. Mise à jour : 2011","wheelchair":"no","id":"node/1134402749"},"geometry":{"type":"Point","coordinates":[2.348539,48.8471395]}},{"type":"Feature","id":"node/1140477414","properties":{"amenity":"pub","brewery":"Leffe;Leffe Ruby;Lancelot;Chouchen hydromel Lozachmeur","contact:instagram":"ti.jos","cuisine":"crepe","description":"Pub breton, crêperie. Musique à la cave jeudi, vendredi ...","name":"Ti Jos","opening_hours":"Tu-Sa 12:00-14:30,19:00-23:00","website":"http://restaurant-tijos.com/","id":"node/1140477414"},"geometry":{"type":"Point","coordinates":[2.3259929,48.8414931]}},{"type":"Feature","id":"node/1146152674","properties":{"addr:city":"Paris","addr:country":"FR","addr:housenumber":"18","addr:postcode":"75005","addr:street":"Rue Rollin","amenity":"pub","cuisine":"italian","happy_hours":"16:00-21:00","internet_access":"wlan","name":"Rollin's Pub","opening_hours":"16:00-02:00","phone":"+33 1 46 33 54 42","wheelchair":"no","id":"node/1146152674"},"geometry":{"type":"Point","coordinates":[2.34991,48.84488]}},{"type":"Feature","id":"node/1173675528","properties":{"addr:city":"Paris","addr:housenumber":"38","addr:postcode":"75012","addr:street":"Avenue Daumesnil","amenity":"pub","check_date":"2023-08-06","email":"bistrot.ludique@la-revanche.fr","internet_access":"yes","name":"La Revanche","opening_hours":"Mo-Fr 18:00-01:00; Sa 13:30-01:00","phone":"+33638149009","source":"cadastre-dgi-fr source : Direction Générale des Impôts - Cadastre. Mise à jour : 2011","website":"https://la-revanche.fr","id":"node/1173675528"},"geometry":{"type":"Point","coordinates":[2.376085,48.8467554]}},{"type":"Feature","id":"node/1206744538","properties":{"amenity":"pub","name":"L'Escale","shop":"tobacco","source":"survey","id":"node/1206744538"},"geometry":{"type":"Point","coordinates":[2.3677265,48.8159724]}},{"type":"Feature","id":"node/1224795728","properties":{"amenity":"pub","brewery":"Guinness","check_date":"2023-03-19","name":"Patrick’s Ballon Vert","wheelchair":"limited","id":"node/1224795728"},"geometry":{"type":"Point","coordinates":[2.3863685,48.8505456]}},{"type":"Feature","id":"node/1235153111","properties":{"addr:city":"Paris","addr:street":"Boulevard Montmartre","alt_name":"Café Oz grands boulevards","amenity":"pub","name":"Café Oz","opening_hours":"Mo-We 13:00-04:00; Th-Sa 13:00-05:00; Su 12:00-04:00","website":"https://cafe-oz.com/fr/grands-boulevards","id":"node/1235153111"},"geometry":{"type":"Point","coordinates":[2.3424721,48.8717823]}},{"type":"Feature","id":"node/1249809141","properties":{"amenity":"pub","indoor_seating":"yes","name":"Le Ségur","outdoor_seating":"yes","payment:credit_cards":"yes","payment:debit_cards":"yes","smoking":"outside","source":"survey","wheelchair":"limited","id":"node/1249809141"},"geometry":{"type":"Point","coordinates":[2.3071395,48.8469882]}},{"type":"Feature","id":"node/1265023391","properties":{"addr:city":"Paris","addr:housenumber":"25-27","addr:postcode":"75005","addr:street":"Rue Frédéric Sauton","amenity":"pub","contact:phone":"+33 1 43 29 40 54","contact:website":"https://www.the-long-hop.com","name":"The Long Hop","source":"survey","wheelchair":"no","id":"node/1265023391"},"geometry":{"type":"Point","coordinates":[2.349006,48.8504924]}},{"type":"Feature","id":"node/1305927682","properties":{"addr:city":"Paris","addr:country":"FR","addr:housenumber":"33","addr:postcode":"75014","addr:street":"Rue de l'Ouest","amenity":"pub","brewery":"Chouffe;Desperados;Guinness;Heineken;Hoegaarden;Leffe;Stella Artois;Superbock;Tripel Karmeliet","check_date":"2023-04-25","internet_access":"yes","musical_instrument":"piano","name":"Osmoz Café","smoking":"no","source":"cadastre-dgi-fr source : Direction Générale des Impôts - Cadastre;mise à jour : 2011","id":"node/1305927682"},"geometry":{"type":"Point","coordinates":[2.3204533,48.8365411]}},{"type":"Feature","id":"node/1328467045","properties":{"amenity":"pub","name":"Café de la Porte des Sablons","source":"survey","id":"node/1328467045"},"geometry":{"type":"Point","coordinates":[2.2712184,48.8803792]}},{"type":"Feature","id":"node/1423517464","properties":{"amenity":"pub","check_date":"2024-02-03","name":"Bar-Tabac des Chênes","tobacco":"yes","id":"node/1423517464"},"geometry":{"type":"Point","coordinates":[2.2223871,48.8802288]}},{"type":"Feature","id":"node/1440883085","properties":{"addr:postcode":"75012","amenity":"pub","name":"Bar & Beer","phone":"+33 9 52 86 56 19","source":"cadastre-dgi-fr source : Direction Générale des Impôts - Cadastre. Mise à jour : 2011","website":"https://www.barandbeer.com/","id":"node/1440883085"},"geometry":{"type":"Point","coordinates":[2.3917395,48.8371288]}},{"type":"Feature","id":"node/1465462980","properties":{"amenity":"pub","brewery":"affligem;amstel;heineken;Edelweiss;Fisher Ambrée","contact:city":"Paris","contact:housenumber":"176","contact:phone":"+33 1 44 82 04 72","contact:postcode":"75002","contact:street":"Rue Montmartre","contact:website":"https://www.frogpubs.com/fr/pub-the-frog-underground-paris-13.php","happy_hours":"Mo-Sa 15:00-20:00","indoor_seating":"yes","internet_access":"wlan","internet_access:fee":"no","microbrewery":"yes","name":"The Frog & Underground","outdoor_seating":"no","smoking":"no","id":"node/1465462980"},"geometry":{"type":"Point","coordinates":[2.3430453,48.8710339]}},{"type":"Feature","id":"node/1483017724","properties":{"amenity":"pub","brewery":"1664;Grimbergen;Kronenbourg","name":"Le Saint-Georges","shop":"tobacco","smoking":"no","id":"node/1483017724"},"geometry":{"type":"Point","coordinates":[2.3372248,48.8768033]}},{"type":"Feature","id":"node/1484054976","properties":{"amenity":"pub","name":"Murphy's House","website":"http://www.murphyshouse.com","wheelchair":"yes","id":"node/1484054976"},"geometry":{"type":"Point","coordinates":[2.3339604,48.8718111]}},{"type":"Feature","id":"node/1486313987","properties":{"amenity":"pub","brewery":"Carlsberg;Chouffe;Cuvée des Trolls;Guinness;Heineken;La Bête;Leffe;Tripel Karmeliet;Warsteiner","contact:email":"contact.hetfeeld@gmail.com","contact:phone":"+33 1 44 82 06 79","name":"James Hetfeeld’s","opening_hours":"Mo-Su 09:00-02:00","id":"node/1486313987"},"geometry":{"type":"Point","coordinates":[2.3449749,48.870988]}},{"type":"Feature","id":"node/1486314048","properties":{"amenity":"pub","check_date":"2023-09-30","indoor_seating":"yes","name":"Le Vizir","opening_hours":"Mo-Su 07:00-21:00","operator":"Hu Vanessa","outdoor_seating":"no","phone":"+33 1 71 50 98 26","smoking":"no","id":"node/1486314048"},"geometry":{"type":"Point","coordinates":[2.3506002,48.8737188]}},{"type":"Feature","id":"node/1486314078","properties":{"addr:city":"Paris","addr:housenumber":"1","addr:postcode":"75002","addr:street":"Boulevard Montmartre","alt_name":"O'Sullivans Grands Boulevards","amenity":"pub","brewery":"Guinness;Heineken;Kronenbourg;Kilkenny;Carlsberg;Grimbergen;Newcastle Brown Ale;Twisted Thistle IPA","contact:phone":"+33140267341","indoor_seating":"yes","name":"O'Sullivans café bar","name:fr":"O'Sullivans café bar","outdoor_seating":"yes","smoking":"outside","source":"survey","website":"https://www.osullivans-pubs.com/","id":"node/1486314078"},"geometry":{"type":"Point","coordinates":[2.3428832,48.8713484]}},{"type":"Feature","id":"node/1489467285","properties":{"amenity":"pub","name":"Le Monaco","smoking":"no","source":"survey","id":"node/1489467285"},"geometry":{"type":"Point","coordinates":[2.3396302,48.8757729]}},{"type":"Feature","id":"node/1579665766","properties":{"air_conditioning":"yes","amenity":"pub","brewery":"leffe;Tripel Karmeliet","check_date":"2023-06-23","indoor_seating":"yes","name":"Auto Passion","name:fr":"Auto Passion","outdoor_seating":"no","payment:credit_cards":"yes","payment:debit_cards":"yes","smoking":"no","toilets:wheelchair":"no","website":"https://www.autopassioncafe.fr/","wheelchair":"yes","wheelchair:description":"toilettes en sous-sols","id":"node/1579665766"},"geometry":{"type":"Point","coordinates":[2.3247553,48.8236221]}},{"type":"Feature","id":"node/1583739853","properties":{"addr:city":"Paris","addr:housenumber":"192","addr:postcode":"75013","addr:street":"Avenue de France","amenity":"pub","indoor_seating":"yes","name":"Le quai","outdoor_seating":"yes","source":"local knowledge","id":"node/1583739853"},"geometry":{"type":"Point","coordinates":[2.3720037,48.8359107]}},{"type":"Feature","id":"node/1616985541","properties":{"addr:housenumber":"74","addr:street":"Rue des Martyrs","amenity":"pub","indoor_seating":"yes","name":"La Fourmi","outdoor_seating":"yes","phone":"+33 1 42 64 70 35","smoking":"no","wheelchair":"limited","id":"node/1616985541"},"geometry":{"type":"Point","coordinates":[2.3397496,48.8823251]}},{"type":"Feature","id":"node/1667270078","properties":{"amenity":"pub","happy_hours":"Mo-Su 16:00-02:00","name":"Time Out","id":"node/1667270078"},"geometry":{"type":"Point","coordinates":[2.3482841,48.8429259]}},{"type":"Feature","id":"node/1667577644","properties":{"addr:housenumber":"3","addr:postcode":"75018","addr:street":"Rue Joseph Dijon","alt_name":"Le Petit Joseph Dijon","amenity":"pub","name":"Le Petit Joseph","opening_hours":"Tu-Sa 17:00-02:00","website":"http://lepetitjosephdijon.com","id":"node/1667577644"},"geometry":{"type":"Point","coordinates":[2.3473994,48.8937094]}},{"type":"Feature","id":"node/1692228848","properties":{"amenity":"pub","name":"Noor Kebab","id":"node/1692228848"},"geometry":{"type":"Point","coordinates":[2.2494343,48.8186087]}},{"type":"Feature","id":"node/1768572992","properties":{"amenity":"pub","check_date":"2023-06-30","contact:housenumber":"107","name":"L'Oustalou","source":"survey","id":"node/1768572992"},"geometry":{"type":"Point","coordinates":[2.3042381,48.8193695]}},{"type":"Feature","id":"node/1793527747","properties":{"amenity":"pub","check_date":"2023-09-23","email":"le.napoleon.paris@gmail.com","name":"Le Napoléon","opening_hours":"Mo-Fr 00:00-02:00,08:00-24:00; Sa,Su 00:00-02:00,09:00-24:00","operator":"Plegat Patrick","outdoor_seating":"yes","phone":"+33 1 47 70 21 36","smoking":"outside","website":"https://www.facebook.com/napoleon.page","id":"node/1793527747"},"geometry":{"type":"Point","coordinates":[2.3542213,48.8729261]}},{"type":"Feature","id":"node/1800349948","properties":{"addr:city":"Paris","addr:housenumber":"15","addr:postcode":"75013","addr:street":"Rue de la Butte-aux-Cailles","amenity":"pub","brewery":"La Filou","name":"Chez Michel","opening_hours":"Mo-Su 16:00-01:45","id":"node/1800349948"},"geometry":{"type":"Point","coordinates":[2.35001,48.827658]}},{"type":"Feature","id":"node/1823551400","properties":{"amenity":"pub","name":"Parme Clichy","opening_hours:signed":"no","id":"node/1823551400"},"geometry":{"type":"Point","coordinates":[2.3285073,48.8814226]}},{"type":"Feature","id":"node/1823551410","properties":{"addr:housenumber":"64","addr:street":"Rue de Clichy","amenity":"pub","name":"The Coq & Bulldog","phone":"+33 9 82 40 56 36","website":"http://www.facebook.com/pages/The-Coq-Bulldog-Pub/226637367401560","id":"node/1823551410"},"geometry":{"type":"Point","coordinates":[2.3283675,48.8817375]}},{"type":"Feature","id":"node/1824374964","properties":{"amenity":"pub","brewery":"guinness;carlsberg;kronenbourg;grimbergen;asahi","diet:vegan":"yes","diet:vegetarian":"yes","indoor_seating":"yes","internet_access":"wlan","name":"Le Dernier Bar avant la Fin du Monde","opening_hours":"16:00-24:00, Sa-Su 11:30-24:00,00:00-02:00","outdoor_seating":"yes","phone":"+33 1 53 00 98 95","toilets:wheelchair":"no","website":"http://dernierbar.com/","wheelchair":"no","wikidata":"Q21043432","id":"node/1824374964"},"geometry":{"type":"Point","coordinates":[2.3463544,48.8579257]}},{"type":"Feature","id":"node/1827138893","properties":{"amenity":"pub","name":"Le Havane","opening_hours:covid19":"off","tobacco":"yes","id":"node/1827138893"},"geometry":{"type":"Point","coordinates":[2.3395297,48.8765034]}},{"type":"Feature","id":"node/1865299715","properties":{"addr:housenumber":"17","addr:postcode":"75018","addr:street":"Rue Tholozé","amenity":"pub","name":"Le Petit Moulin","id":"node/1865299715"},"geometry":{"type":"Point","coordinates":[2.3355039,48.8865775]}},{"type":"Feature","id":"node/1871186489","properties":{"amenity":"pub","contact:city":"Paris","contact:email":"le.fumoir@icloud.com","contact:housenumber":"6","contact:phone":"+33 1 42 92 00 24","contact:postcode":"75001","contact:street":"Rue de l'Amiral de Coligny","contact:website":"http://lefumoir.com","indoor_seating":"yes","internet_access":"wlan","name":"Le Fumoir","opening_hours":"Mo-Su 11:00-02:00","outdoor_seating":"yes","id":"node/1871186489"},"geometry":{"type":"Point","coordinates":[2.3408494,48.8604056]}},{"type":"Feature","id":"node/1875819752","properties":{"amenity":"pub","indoor_seating":"yes","internet_access":"no","name":"Clichy's Tavern","outdoor_seating":"yes","source":"local_knowledge","survey:date":"2017-09-01","id":"node/1875819752"},"geometry":{"type":"Point","coordinates":[2.3290367,48.8845932]}},{"type":"Feature","id":"node/1877475420","properties":{"addr:city":"Paris","addr:housenumber":"26","addr:postcode":"75018","addr:street":"Rue Duhesme","amenity":"pub","check_date:opening_hours":"2023-04-09","cocktails":"yes","diet:vegetarian":"yes","food":"yes","internet_access":"wlan","name":"L'Étoile de Montmartre","opening_hours:signed":"no","outdoor_seating":"yes","id":"node/1877475420"},"geometry":{"type":"Point","coordinates":[2.3394448,48.8910541]}},{"type":"Feature","id":"node/1951465699","properties":{"addr:housename":"Café de la Chope","addr:street":"Place de la Réunion","amenity":"pub","name":"La Chope","website":"https://www.lachopedu20eme.com/","id":"node/1951465699"},"geometry":{"type":"Point","coordinates":[2.4004871,48.8556875]}},{"type":"Feature","id":"node/2011451022","properties":{"amenity":"pub","brewery":"3 monts","internet_access":"no","name":"Café du Lac","id":"node/2011451022"},"geometry":{"type":"Point","coordinates":[2.417748,48.8412533]}},{"type":"Feature","id":"node/2020244755","properties":{"amenity":"pub","name":"Le Maine-Anjou","opening_hours:covid19":"off","phone":"+33 1 46 42 10 34","source":"survey","tobacco":"yes","id":"node/2020244755"},"geometry":{"type":"Point","coordinates":[2.2971896,48.8239492]}},{"type":"Feature","id":"node/2066387122","properties":{"addr:city":"Paris","addr:housenumber":"4","addr:postcode":"75004","addr:street":"Rue Crillon","amenity":"pub","brewery":"Heineken;kk","cuisine":"french","internet_access":"no","name":"Rosemary Gastropub","operator":"Beavertown & Rosemary food pairing","phone":"+33 1 42 78 09 71","was":"restaurant La Canaille","website":"https://www.rosemarygastropub.com/","id":"node/2066387122"},"geometry":{"type":"Point","coordinates":[2.3653776,48.8486397]}},{"type":"Feature","id":"node/2084076530","properties":{"amenity":"pub","contact:city":"Le Kremlin-Bicêtre","contact:housenumber":"23","contact:postcode":"94270","contact:street":"Avenue de Fontainebleau","contact:website":"http://www.new-billard.fr","entrance":"main","name":"New Billard","opening_hours":"Mo-Fr 12:00-22:00+; PH,Sa,Su 13:00-22:00+","sport":"billiards","wheelchair":"no","id":"node/2084076530"},"geometry":{"type":"Point","coordinates":[2.3612592,48.8142954]}},{"type":"Feature","id":"node/2086399144","properties":{"amenity":"pub","brewery":"Blanche de Bruxelles;Carlsberg;Carolus d'or;Chouffe;Cuvée des Trolls;Guinness;John Martin's;Leffe Royale;Lindemans Framboise;Magner's;Maredsous;Pilsner Urquell;Trappe Triple;Kilkenny;Tripel Karmeliet","contact:city":"Paris","contact:country":"FR","contact:housenumber":"42","contact:postcode":"75014","contact:street":"Rue du Montparnasse","happy_hours":"15:00-20:00","name":"Le Falstaff","opening_hours":"Su-Th 08:30-04:00; Fr-Sa 08:30-05:00","phone":"+33 1 43 35 38 29","smoking":"outside","id":"node/2086399144"},"geometry":{"type":"Point","coordinates":[2.3260648,48.8428397]}},{"type":"Feature","id":"node/2086399151","properties":{"amenity":"pub","level":"0","name":"L'Express 27","wheelchair":"limited","id":"node/2086399151"},"geometry":{"type":"Point","coordinates":[2.3185125,48.8412652]}},{"type":"Feature","id":"node/2124487682","properties":{"amenity":"pub","name":"Le Métro","source":"survey 03/2018","wheelchair":"limited","id":"node/2124487682"},"geometry":{"type":"Point","coordinates":[2.4089025,48.8468391]}},{"type":"Feature","id":"node/2157952434","properties":{"addr:city":"Paris","addr:housenumber":"41 bis","addr:postcode":"75019","addr:street":"Quai de la Loire","amenity":"pub","brewery":"various","cuisine":"burger","name":"Paname Brewing Company","opening_hours":"Mo-Su 11:00-02:00","outdoor_seating":"yes","phone":"+33 1 40 36 43 55","source":"survey 2013","toilets:wheelchair":"yes","website":"https://www.panamebrewingcompany.com/","wheelchair":"yes","wheelchair:description":"Biergarten ebenerdig - Gaststätte über einen Rollstuhllift erreichbar.","id":"node/2157952434"},"geometry":{"type":"Point","coordinates":[2.3787631,48.8878312]}},{"type":"Feature","id":"node/2184604575","properties":{"amenity":"pub","contact:housenumber":"80","contact:street":"Rue de l'Amiral Mouchez","name":"La Royale","tobacco":"yes","id":"node/2184604575"},"geometry":{"type":"Point","coordinates":[2.3427679,48.8210219]}},{"type":"Feature","id":"node/2206746831","properties":{"amenity":"pub","contact:city":"Paris","contact:phone":"+33 1 43 64 25 33","contact:postcode":"75020","contact:street":"Place du Maquis du Vercors","name":"Corcoran's","outdoor_seating":"yes","id":"node/2206746831"},"geometry":{"type":"Point","coordinates":[2.4094255,48.8773133]}},{"type":"Feature","id":"node/2206746842","properties":{"amenity":"pub","name":"Le Bistrot du Poinçonneur","id":"node/2206746842"},"geometry":{"type":"Point","coordinates":[2.4054498,48.8748297]}},{"type":"Feature","id":"node/2206863528","properties":{"amenity":"pub","gambling":"yes","name":"Le Cantal","tobacco":"yes","id":"node/2206863528"},"geometry":{"type":"Point","coordinates":[2.3992261,48.8725672]}},{"type":"Feature","id":"node/2210579328","properties":{"amenity":"pub","check_date":"2023-06-10","name":"Cham's","source":"survey","id":"node/2210579328"},"geometry":{"type":"Point","coordinates":[2.3029814,48.8192916]}},{"type":"Feature","id":"node/2213842106","properties":{"amenity":"pub","check_date":"2023-06-30","name":"La Divette de Malakoff","source":"survey","id":"node/2213842106"},"geometry":{"type":"Point","coordinates":[2.3044405,48.8215741]}},{"type":"Feature","id":"node/2213842109","properties":{"amenity":"pub","check_date":"2023-06-10","name":"Le New Mail","source":"survey","id":"node/2213842109"},"geometry":{"type":"Point","coordinates":[2.2996401,48.8218241]}},{"type":"Feature","id":"node/2234720465","properties":{"addr:city":"Paris","addr:postcode":"75020","addr:street":"Rue Julien Lacroix","amenity":"pub","check_date":"2023-04-22","name":"Demain c'est loin","wheelchair":"no","id":"node/2234720465"},"geometry":{"type":"Point","coordinates":[2.3859766,48.8685896]}},{"type":"Feature","id":"node/2245381991","properties":{"alt_name":"Josephine","amenity":"pub","name":"Joséphine","restaurant":"yes","source":"Observations personnelles","id":"node/2245381991"},"geometry":{"type":"Point","coordinates":[2.3602888,48.8902743]}},{"type":"Feature","id":"node/2247185911","properties":{"amenity":"pub","name":"Le Commerce","id":"node/2247185911"},"geometry":{"type":"Point","coordinates":[2.3611596,48.8911052]}},{"type":"Feature","id":"node/2247185914","properties":{"addr:city":"Paris","addr:housenumber":"9","addr:postcode":"75018","addr:street":"Rue de l'Olive","amenity":"pub","contact:housenumber":"9","contact:street":"Rue de l'Olive","name":"Le Monde de Léa","opening_hours":"Mo-Su 10:00-01:30","restaurant":"yes","id":"node/2247185914"},"geometry":{"type":"Point","coordinates":[2.3611663,48.8908406]}},{"type":"Feature","id":"node/2258450453","properties":{"amenity":"pub","name":"Café de la Poste","id":"node/2258450453"},"geometry":{"type":"Point","coordinates":[2.3611716,48.8901819]}},{"type":"Feature","id":"node/2268459870","properties":{"amenity":"pub","name":"Triangle d'or","id":"node/2268459870"},"geometry":{"type":"Point","coordinates":[2.3631469,48.8913601]}},{"type":"Feature","id":"node/2268459882","properties":{"alt_name":"Au Bon Couscous","amenity":"pub","name":"Le Bon Couscous","id":"node/2268459882"},"geometry":{"type":"Point","coordinates":[2.3620699,48.8899105]}},{"type":"Feature","id":"node/2274029184","properties":{"amenity":"pub","name":"La Chope à Mou's","id":"node/2274029184"},"geometry":{"type":"Point","coordinates":[2.36183,48.8901067]}},{"type":"Feature","id":"node/2275170501","properties":{"amenity":"pub","name":"Maloumarin","id":"node/2275170501"},"geometry":{"type":"Point","coordinates":[2.3611711,48.8906807]}},{"type":"Feature","id":"node/2279508873","properties":{"amenity":"pub","name":"Café de la Poste","id":"node/2279508873"},"geometry":{"type":"Point","coordinates":[2.3597002,48.8901377]}},{"type":"Feature","id":"node/2279711294","properties":{"alt_name":"La Petite Chope","amenity":"pub","indoor_seating":"yes","name":"Hélène Café","opening_hours":"Mo-Fr 08:30-21:00, Sa-Su 10:30-21:00","outdoor_seating":"no","wheelchair":"no","id":"node/2279711294"},"geometry":{"type":"Point","coordinates":[2.3602853,48.8908511]}},{"type":"Feature","id":"node/2279711295","properties":{"amenity":"pub","name":"Bar-Tabac Le Bergerac","opening_hours:covid19":"off","shop":"tobacco","id":"node/2279711295"},"geometry":{"type":"Point","coordinates":[2.359603,48.8916443]}},{"type":"Feature","id":"node/2285154160","properties":{"amenity":"pub","name":"Stop Chapelle","id":"node/2285154160"},"geometry":{"type":"Point","coordinates":[2.3596443,48.8908932]}},{"type":"Feature","id":"node/2293740288","properties":{"amenity":"pub","brewery":"Blondinette","name":"Le Bistrot des Artistes","wheelchair":"no","id":"node/2293740288"},"geometry":{"type":"Point","coordinates":[2.3477252,48.8508589]}},{"type":"Feature","id":"node/2295812293","properties":{"amenity":"pub","delivery:covid19":"no","name":"Tabac des Sports","source":"local Knowledge","tobacco":"yes","id":"node/2295812293"},"geometry":{"type":"Point","coordinates":[2.3647206,48.8196529]}},{"type":"Feature","id":"node/2304147377","properties":{"amenity":"pub","check_date":"2023-06-12","indoor_seating":"yes","name":"L'Hirondelle","outdoor_seating":"yes","source":"survey","id":"node/2304147377"},"geometry":{"type":"Point","coordinates":[2.3021443,48.8215845]}},{"type":"Feature","id":"node/2315010451","properties":{"addr:city":"Paris","addr:housenumber":"65","addr:postcode":"75010","addr:street":"Boulevard de la Villette","amenity":"pub","email":"contact@lamaisonbistrot.fr","food":"yes","indoor_seating":"yes","name":"La Maison Bistrot","opening_hours":"Mo-Sa 09:00-02:00","opening_hours:covid19":"off","outdoor_seating":"yes","phone":"+33 9 51 17 06 31","website":"https://lamaisonbistrot.fr/","id":"node/2315010451"},"geometry":{"type":"Point","coordinates":[2.3718669,48.8762359]}},{"type":"Feature","id":"node/2317308530","properties":{"alt_name":"Le Vénéto","amenity":"pub","name":"Le Veneto","id":"node/2317308530"},"geometry":{"type":"Point","coordinates":[2.3608645,48.886855]}},{"type":"Feature","id":"node/2329855383","properties":{"amenity":"pub","name":"Le Celtic","outdoor_seating":"yes","id":"node/2329855383"},"geometry":{"type":"Point","coordinates":[2.358659,48.89772]}},{"type":"Feature","id":"node/2333397301","properties":{"amenity":"pub","bulk_purchase":"yes","name":"En Vrac","opening_hours":"Mo 17:00-21:00; Tu-Sa 10:00-22:00; Su 10:00-21:00","opening_hours:covid19":"off","restaurant":"yes","shop":"alcohol","website":"http://www.vinenvrac.fr/","id":"node/2333397301"},"geometry":{"type":"Point","coordinates":[2.3614003,48.8901546]}},{"type":"Feature","id":"node/2343464256","properties":{"amenity":"pub","name":"Le Rond Point de la Gare","id":"node/2343464256"},"geometry":{"type":"Point","coordinates":[2.4601417,48.8960085]}},{"type":"Feature","id":"node/2349345389","properties":{"amenity":"pub","name":"Bistrot 38","id":"node/2349345389"},"geometry":{"type":"Point","coordinates":[2.3600003,48.8870915]}},{"type":"Feature","id":"node/2349350818","properties":{"amenity":"pub","name":"La Belle Époque","id":"node/2349350818"},"geometry":{"type":"Point","coordinates":[2.3596144,48.8875981]}},{"type":"Feature","id":"node/2355778352","properties":{"amenity":"pub","name":"Bah Loulou...","id":"node/2355778352"},"geometry":{"type":"Point","coordinates":[2.3490686,48.8456892]}},{"type":"Feature","id":"node/2355778353","properties":{"addr:city":"Paris","addr:housenumber":"45","addr:postcode":"75005","addr:street":"Rue Descartes","amenity":"pub","brewery":"1664;1664 Blanche;Carlsberg;Grimbergen;Grimbergen Double Ambrée;Guinness;Kilkenny;Kronenbourg","happy_hours":"17:00-20:00","internet_access":"no","name":"L’Antidote","phone":"+33 1 43 54 69 78","website":"https://www.lantidote-paris.com/","id":"node/2355778353"},"geometry":{"type":"Point","coordinates":[2.349197,48.8452705]}},{"type":"Feature","id":"node/2358454956","properties":{"amenity":"pub","name":"Le Nemrod","id":"node/2358454956"},"geometry":{"type":"Point","coordinates":[2.3565674,48.8848468]}},{"type":"Feature","id":"node/2361287649","properties":{"amenity":"pub","name":"Le Provençal","id":"node/2361287649"},"geometry":{"type":"Point","coordinates":[2.3592281,48.8903987]}},{"type":"Feature","id":"node/2375148543","properties":{"amenity":"pub","name":"La Goutte Rouge","id":"node/2375148543"},"geometry":{"type":"Point","coordinates":[2.3531342,48.8855875]}},{"type":"Feature","id":"node/2394065575","properties":{"amenity":"pub","brewery":"guinness;carlsberg","happy_hours":"Mo-Fr 17:00-20:00","indoor_seating":"yes","name":"Mc Brides","outdoor_seating":"yes","smoking":"outside","source":"survey 2013","wheelchair":"no","id":"node/2394065575"},"geometry":{"type":"Point","coordinates":[2.3488844,48.861037]}},{"type":"Feature","id":"node/2408672196","properties":{"amenity":"pub","indoor_seating":"yes","name":"Chez Gudule","outdoor_seating":"yes","wheelchair":"yes","id":"node/2408672196"},"geometry":{"type":"Point","coordinates":[2.4022649,48.8441092]}},{"type":"Feature","id":"node/2408672211","properties":{"amenity":"pub","indoor_seating":"yes","name":"Cha-L'Or","outdoor_seating":"yes","id":"node/2408672211"},"geometry":{"type":"Point","coordinates":[2.4001936,48.8453425]}},{"type":"Feature","id":"node/2445876965","properties":{"addr:postcode":"75018","amenity":"pub","name":"Au Bon Coin","phone":"+33 1 46 06 91 36","smoking":"outside","id":"node/2445876965"},"geometry":{"type":"Point","coordinates":[2.3377693,48.8930088]}},{"type":"Feature","id":"node/2461799896","properties":{"addr:city":"Paris","addr:housenumber":"28","addr:postcode":"75018","addr:street":"Rue de la Goutte d'Or","amenity":"pub","brewery":"various","email":"contact@brasserielagouttedor.com","name":"Brasserie de la Goutte d'Or","opening_hours":"Th 18:00-24:00; Fr 18:00-23:00; Sa 16:00-23:00","phone":"+33 9 80 64 23 51","website":"http://www.brasserielagouttedor.com","id":"node/2461799896"},"geometry":{"type":"Point","coordinates":[2.3524019,48.8851214]}},{"type":"Feature","id":"node/2469001986","properties":{"amenity":"pub","name":"Les Orgues","id":"node/2469001986"},"geometry":{"type":"Point","coordinates":[2.3724461,48.8891219]}},{"type":"Feature","id":"node/2469138456","properties":{"amenity":"pub","name":"Le Bistrot du Nord","id":"node/2469138456"},"geometry":{"type":"Point","coordinates":[2.3599148,48.89291]}},{"type":"Feature","id":"node/2472600007","properties":{"amenity":"pub","happy_hours":"16:00-21:00","name":"Café de la Gare","opening_hours":"PH,Mo-Su 06:00-01:00+","outdoor_seating":"yes","restaurant":"yes","smoking":"outside","id":"node/2472600007"},"geometry":{"type":"Point","coordinates":[2.3636687,48.8929554]}},{"type":"Feature","id":"node/2472600013","properties":{"amenity":"pub","happy_hours":"16:00-22:00","indoor_seating":"yes","name":"La Piscine","outdoor_seating":"yes","restaurant":"yes","smoking":"outside","id":"node/2472600013"},"geometry":{"type":"Point","coordinates":[2.363158,48.8930915]}},{"type":"Feature","id":"node/2472600019","properties":{"amenity":"pub","delivery:covid19":"no","indoor_seating":"yes","name":"La Rotonde Hébertine","opening_hours:covid19":"Mo-Sa 09:00-14:00","outdoor_seating":"yes","restaurant":"yes","shop":"tobacco","takeaway:covid19":"yes","id":"node/2472600019"},"geometry":{"type":"Point","coordinates":[2.3633496,48.8929606]}},{"type":"Feature","id":"node/2490190445","properties":{"amenity":"pub","name":"Tabac de l'Est","id":"node/2490190445"},"geometry":{"type":"Point","coordinates":[2.3579456,48.8753058]}},{"type":"Feature","id":"node/2496809985","properties":{"alt_name":"L'Arc-en-Ciel","amenity":"pub","brewery":"Heineken","gambling":"yes","internet_access":"no","name":"Chez Anna","restaurant":"yes","tobacco":"yes","id":"node/2496809985"},"geometry":{"type":"Point","coordinates":[2.4315268,48.8964221]}},{"type":"Feature","id":"node/2499743219","properties":{"amenity":"pub","brewery":"Guinness;Duvel","changing_table":"no","food":"yes","level":"0","microbrewery":"no","name":"Le Havane","opening_hours":"Mo-Su 07:00-22:30+","outdoor_seating":"yes","smoking":"outside","toilets":"yes","toilets:access":"customers","toilets:disposal":"flush","toilets:position":"urinal;seated","toilets:wheelchair":"yes","wheelchair":"limited","id":"node/2499743219"},"geometry":{"type":"Point","coordinates":[2.3475043,48.8304117]}},{"type":"Feature","id":"node/2536062861","properties":{"amenity":"pub","check_date":"2023-05-17","name":"L'imprévu","source":"survey 2021","id":"node/2536062861"},"geometry":{"type":"Point","coordinates":[2.3705561,48.8817773]}},{"type":"Feature","id":"node/2549246541","properties":{"addr:city":"Paris","addr:postcode":"75006","amenity":"pub","brewery":"Guinness","indoor_seating":"yes","internet_access":"yes","name":"Galway Irish Pub","outdoor_seating":"yes","phone":"+33 1 43 29 64 50","smoking":"no","id":"node/2549246541"},"geometry":{"type":"Point","coordinates":[2.343583,48.8539398]}},{"type":"Feature","id":"node/2556489497","properties":{"amenity":"pub","brewery":"1664;chouffe;Delirium Tremens","name":"Au Dernier Métro","source":"cadastre-dgi-fr source : Direction Générale des Impôts - Cadastre. Mise à jour : 2013","id":"node/2556489497"},"geometry":{"type":"Point","coordinates":[2.2930824,48.8503692]}},{"type":"Feature","id":"node/2614591568","properties":{"amenity":"pub","brewery":"yes","contact:city":"Paris 6eme Arrondissement","contact:housenumber":"20","contact:phone":"+33 9 74 73 57 10","contact:postcode":"75006","contact:street":"Rue Des Canettes","happy_hours":"Mo-Su 15:00-20:00","name":"O'neil","opening_hours":"Mo-Su 00:00-02:00, 12:00-23:59","shop":"beverages","website":"https://www.brasserieoneil.com","wheelchair":"limited","id":"node/2614591568"},"geometry":{"type":"Point","coordinates":[2.3336429,48.8518837]}},{"type":"Feature","id":"node/2626551371","properties":{"amenity":"pub","brewery":"guinness;affligem;Wel Scotch","contact:housenumber":"77","contact:street":"Rue Saint-Dominique","internet_access":"wlan","name":"O'Brien's","opening_hours":"Mo-Su 17:00-2:00","phone":"+33145517587","source":"cadastre-dgi-fr source : Direction Générale des Impôts - Cadastre. Mise à jour : 2010","website":"https://www.obriens-pub.com/","id":"node/2626551371"},"geometry":{"type":"Point","coordinates":[2.3087639,48.8597393]}},{"type":"Feature","id":"node/2685527894","properties":{"addr:city":"Paris","addr:housenumber":"10","addr:postcode":"75004","addr:street":"Rue des Lombards","amenity":"pub","brewery":"Guinness;Carlsberg;Grimbergen;Heineken","indoor_seating":"yes","name":"O'Sullivans Rebel Red","opening_hours":"Su-Th 17:00-02:00, Fr-Sa 17:00-05:00","outdoor_seating":"yes","smoking":"outside","toilets:wheelchair":"no","wheelchair":"limited","id":"node/2685527894"},"geometry":{"type":"Point","coordinates":[2.3498444,48.859187]}},{"type":"Feature","id":"node/2696727064","properties":{"addr:housenumber":"11","addr:postcode":"75018","addr:street":"Rue Marcadet","amenity":"pub","check_date:opening_hours":"2023-02-08","name":"L'escale","opening_hours:signed":"no","id":"node/2696727064"},"geometry":{"type":"Point","coordinates":[2.3544389,48.8902902]}},{"type":"Feature","id":"node/2696736610","properties":{"amenity":"pub","name":"Les deux Marches","id":"node/2696736610"},"geometry":{"type":"Point","coordinates":[2.3529231,48.890784]}},{"type":"Feature","id":"node/2788471673","properties":{"amenity":"pub","brewery":"Kronenbourg;Grimbergen;Grimbergen blanche;Carlsberg;Guinness","happy_hours":"17:00-21:00","name":"Margen's Pub","id":"node/2788471673"},"geometry":{"type":"Point","coordinates":[2.3498216,48.8424716]}},{"type":"Feature","id":"node/2788471680","properties":{"amenity":"pub","cuisine":"american;pizza","description":"Karaoké from 21:00.","happy_hours":"16:00-21:00","karaoke":"yes","name":"New York Café","opening_hours":"Su-Th 16:00-02:00, Fr-Sa 16:00-05:00","phone":"+33 6 03 60 02 29;+33 1 45 35 48 43","website":"https://www.newyorkcafekaraoke.com/","id":"node/2788471680"},"geometry":{"type":"Point","coordinates":[2.3496042,48.8427514]}},{"type":"Feature","id":"node/2788471698","properties":{"amenity":"pub","brewery":"Chouffe;Grimbergen;Guinness;Leffe;Wall Lager","happy_hours":"17:00-21:00","internet_access":"no","name":"The Wall","smoking":"outside","id":"node/2788471698"},"geometry":{"type":"Point","coordinates":[2.3498652,48.8442543]}},{"type":"Feature","id":"node/2826860411","properties":{"amenity":"pub","name":"Le Marigny","opening_hours:covid19":"off","shop":"tobacco","wheelchair":"yes","id":"node/2826860411"},"geometry":{"type":"Point","coordinates":[2.375488,48.8892745]}},{"type":"Feature","id":"node/2829177617","properties":{"amenity":"pub","indoor_seating":"yes","name":"Ho's kfe","opening_hours":"Mo-Sa 06:30-21:30","outdoor_seating":"yes","shop":"tobacco","source":"survey","id":"node/2829177617"},"geometry":{"type":"Point","coordinates":[2.3527604,48.8947706]}},{"type":"Feature","id":"node/2869388478","properties":{"amenity":"pub","name":"108 Café","source":"Observation personnelle","id":"node/2869388478"},"geometry":{"type":"Point","coordinates":[2.3782517,48.8910965]}},{"type":"Feature","id":"node/2893835124","properties":{"amenity":"pub","contact:email":"info@thegreengoose.fr","contact:phone":"+33982377341","contact:website":"http://www.thegreengoose.fr","name":"The Green Goose","opening_hours":"Mo-Fr 12:00-14:30,17:00-02:00; Sa,Su 12:00-02:00","id":"node/2893835124"},"geometry":{"type":"Point","coordinates":[2.3905661,48.8503362]}},{"type":"Feature","id":"node/2957797734","properties":{"addr:city":"Paris","addr:housenumber":"164","addr:postcode":"75019","addr:street":"Boulevard de la Villette","amenity":"pub","name":"Le Débit","opening_hours":"Tu-Sa 17:00-24:00","website":"https://www.facebook.com/ledebit","id":"node/2957797734"},"geometry":{"type":"Point","coordinates":[2.3705836,48.8804638]}},{"type":"Feature","id":"node/3034949426","properties":{"addr:housenumber":"116","addr:postcode":"75011","addr:street":"Rue Amelot","amenity":"pub","check_date":"2023-10-14","email":"lemammouthbar@gmail.com","name":"Le Mammouth","opening_hours":"Tu-Sa 17:00-04:00","phone":"+33663453244","website":"https://www.lemammouth-bar.com/","id":"node/3034949426"},"geometry":{"type":"Point","coordinates":[2.3671571,48.8636828]}},{"type":"Feature","id":"node/3100528484","properties":{"amenity":"pub","check_date":"2023-06-12","indoor_seating":"yes","name":"Bar Tabac de la Mairie","outdoor_seating":"yes","source":"survey","id":"node/3100528484"},"geometry":{"type":"Point","coordinates":[2.3019683,48.8217296]}},{"type":"Feature","id":"node/3100528485","properties":{"amenity":"pub","check_date":"2023-06-12","indoor_seating":"yes","name":"Brasserie de la Place","outdoor_seating":"yes","source":"survey","id":"node/3100528485"},"geometry":{"type":"Point","coordinates":[2.3018976,48.8218059]}},{"type":"Feature","id":"node/3111440384","properties":{"amenity":"pub","indoor_seating":"yes","name":"Brasserie de l'Hôtel de Ville","opening_hours":"Mo-Su 11:30-15:00,19:00-22:00","outdoor_seating":"yes","source":"survey","wheelchair":"limited","id":"node/3111440384"},"geometry":{"type":"Point","coordinates":[2.3026863,48.8210195]}},{"type":"Feature","id":"node/3185428561","properties":{"amenity":"pub","name":"Fiesta è basta","shop":"convenience","source":"survey","id":"node/3185428561"},"geometry":{"type":"Point","coordinates":[2.3626774,48.8883559]}},{"type":"Feature","id":"node/3200354964","properties":{"amenity":"pub","name":"L'Avenir","phone":"+33 1 46 42 10 16","source":"survey","id":"node/3200354964"},"geometry":{"type":"Point","coordinates":[2.2957384,48.824799]}},{"type":"Feature","id":"node/3206788732","properties":{"amenity":"pub","name":"Pub Restaurant Dogstar","source":"survey 2014","id":"node/3206788732"},"geometry":{"type":"Point","coordinates":[2.306675,48.8712181]}},{"type":"Feature","id":"node/3211066235","properties":{"amenity":"pub","name":"Bristol Café","phone":"+33 1 46 42 09 57","source":"survey","id":"node/3211066235"},"geometry":{"type":"Point","coordinates":[2.2927067,48.8214312]}},{"type":"Feature","id":"node/3211540614","properties":{"addr:city":"Paris","addr:housenumber":"110","addr:postcode":"75018","addr:street":"Boulevard de Clichy","amenity":"pub","name":"Corcoran's Irish Pub","id":"node/3211540614"},"geometry":{"type":"Point","coordinates":[2.3308105,48.8844749]}},{"type":"Feature","id":"node/3218310467","properties":{"amenity":"pub","name":"HipHopBar","id":"node/3218310467"},"geometry":{"type":"Point","coordinates":[2.3792948,48.853459]}},{"type":"Feature","id":"node/3224130503","properties":{"amenity":"pub","name":"Carr's Irish Pub","phone":"+33142606026","website":"http://www.carrs-paris.fr","id":"node/3224130503"},"geometry":{"type":"Point","coordinates":[2.3295596,48.8653117]}},{"type":"Feature","id":"node/3323689962","properties":{"amenity":"pub","name":"Roy's","source":"survey","id":"node/3323689962"},"geometry":{"type":"Point","coordinates":[2.3319094,48.8827577]}},{"type":"Feature","id":"node/3415081590","properties":{"amenity":"pub","name":"Le Saint-Claude","opening_hours":"Mo-Fr 09:30-20:30;Sa 08:30-20:30","owner":"Chung Benjamin Hon Pan","phone":"+33 9 67 06 75 79","smoking":"outside","source":"local_knowledge","id":"node/3415081590"},"geometry":{"type":"Point","coordinates":[2.325979,48.887029]}},{"type":"Feature","id":"node/3422205185","properties":{"amenity":"pub","name":"Le Figuier","id":"node/3422205185"},"geometry":{"type":"Point","coordinates":[2.420457,48.8578544]}},{"type":"Feature","id":"node/3427068557","properties":{"amenity":"pub","brewery":"Affligem;Affligem Carmin;Edelweiss;Heineken;Pellforth;Strongbow","contact:city":"Paris","contact:housenumber":"88","contact:phone":"+33 1 42 50 74 11","contact:postcode":"75015","contact:street":"Rue de la Croix Nivert","name":"Celtic Corner","opening_hours":"Mo-Sa 16:00-01:30","id":"node/3427068557"},"geometry":{"type":"Point","coordinates":[2.2958801,48.84384]}},{"type":"Feature","id":"node/3429930100","properties":{"amenity":"pub","name":"Bugsy's","toilets:wheelchair":"no","wheelchair":"limited","id":"node/3429930100"},"geometry":{"type":"Point","coordinates":[2.3179008,48.8712006]}},{"type":"Feature","id":"node/3438438502","properties":{"amenity":"pub","name":"Le Narval","operator":"Hua Diep Hélène","phone":"+33 1 42 93 95 74","smoking":"outside","source":"survey:2015-04-03","id":"node/3438438502"},"geometry":{"type":"Point","coordinates":[2.3249608,48.884848]}},{"type":"Feature","id":"node/3448557650","properties":{"amenity":"pub","happy_hours":"17:00-21:00","name":"La Petite","smoking":"outside","id":"node/3448557650"},"geometry":{"type":"Point","coordinates":[2.3497388,48.8442729]}},{"type":"Feature","id":"node/3450953775","properties":{"amenity":"pub","name":"Pub Gaité","id":"node/3450953775"},"geometry":{"type":"Point","coordinates":[2.3239992,48.8403711]}},{"type":"Feature","id":"node/3461705894","properties":{"amenity":"pub","name":"Le Huit","id":"node/3461705894"},"geometry":{"type":"Point","coordinates":[2.320412,48.8733893]}},{"type":"Feature","id":"node/3515582589","properties":{"addr:housenumber":"20","addr:postcode":"75018","addr:street":"Rue Custine","amenity":"pub","brewery":"various","name":"À la bière comme à la bière","opening_hours":"Tu 16:00-21:00; We-Th 16:00-22:00; Fr-Sa 12:00-22:00","phone":"+33 9 52 80 59 14","website":"https://www.alabierecommealabiere.com","id":"node/3515582589"},"geometry":{"type":"Point","coordinates":[2.3476192,48.8886066]}},{"type":"Feature","id":"node/3515607620","properties":{"amenity":"pub","name":"Le Gaulois","phone":"+33 1 41 90 79 78","source":"survey","id":"node/3515607620"},"geometry":{"type":"Point","coordinates":[2.2902952,48.8244091]}},{"type":"Feature","id":"node/3517771079","properties":{"addr:housenumber":"51","amenity":"pub","name":"Au Sportif","phone":"+33 1 46 42 12 63","source":"survey","website":"http://auxsportifs-vanves.fr/","id":"node/3517771079"},"geometry":{"type":"Point","coordinates":[2.2913605,48.8232571]}},{"type":"Feature","id":"node/3520483492","properties":{"amenity":"pub","brewery":"Inseine;Maison Blanche;Ginger Twist;Dark de Triomphe","happy_hours":"Mo-Fr 17:00-20:00","internet_access":"wlan","microbrewery":"yes","name":"The Frog & Princess","opening_hours":"Th-Sa 17:00-02:00, Mo-We,Su 17:00-01:00","operator":"FrogPubs","phone":"+33 1 40 51 77 38","website":"https://www.frogpubs.com/fr/pub-princess-paris.php","id":"node/3520483492"},"geometry":{"type":"Point","coordinates":[2.3345868,48.8522792]}},{"type":"Feature","id":"node/3520535766","properties":{"amenity":"pub","brewery":"Inseine;Maison Blanche;Ginger Twist;Dark de Triomphe","internet_access":"yes","internet_access:fee":"no","level":"0","microbrewery":"yes","name":"The Frog Revolution","operator":"FrogPubs","phone":"+33 1 42 74 34 41","smoking":"no","toilets":"yes","toilets:access":"customers","toilets:disposal":"flush","toilets:position":"seated;urinal","toilets:wheelchair":"no","website":"https://www.frogpubs.com/fr/pub-revolution.php","wheelchair":"limited","id":"node/3520535766"},"geometry":{"type":"Point","coordinates":[2.3682722,48.8539042]}},{"type":"Feature","id":"node/3544775470","properties":{"amenity":"pub","name":"L'Industrie","id":"node/3544775470"},"geometry":{"type":"Point","coordinates":[2.2333958,48.8772155]}},{"type":"Feature","id":"node/3544775471","properties":{"amenity":"pub","name":"Le Bourgogne","phone":"+33 1 47 72 06 68","toilets:wheelchair":"no","wheelchair":"yes","id":"node/3544775471"},"geometry":{"type":"Point","coordinates":[2.2330787,48.8767268]}},{"type":"Feature","id":"node/3551375293","properties":{"amenity":"pub","brewery:note":"oiftrd","name":"La Seine","name:ar":"السين","name:arc":"ܣܢ","name:azb":"سئن چایی","name:fa":"سن","name:grc":"Σηκουάνας","name:kk-Arab":"سەنا","name:pa":"ਸੈਨ ਦਰਿਆ","name:pnb":"دریائے سین","name:syc":"ܣܢ","name:ur":"دریائے سین","id":"node/3551375293"},"geometry":{"type":"Point","coordinates":[2.368782,48.8500675]}},{"type":"Feature","id":"node/3551397114","properties":{"addr:city":"Paris","addr:housenumber":"39","addr:postcode":"75011","addr:street":"Rue Amelot","amenity":"pub","name":"Raton Buveur","id":"node/3551397114"},"geometry":{"type":"Point","coordinates":[2.3687642,48.856978]}},{"type":"Feature","id":"node/3588258393","properties":{"amenity":"pub","indoor_seating":"yes","name":"Au Gobelet d'Argent","outdoor_seating":"yes","smoking":"outside","wheelchair":"no","id":"node/3588258393"},"geometry":{"type":"Point","coordinates":[2.3482199,48.8627991]}},{"type":"Feature","id":"node/3623613615","properties":{"amenity":"pub","check_date:opening_hours":"2023-03-03","lottery":"yes","name":"Bar Tabac","opening_hours:signed":"no","tobacco":"yes","id":"node/3623613615"},"geometry":{"type":"Point","coordinates":[2.3509155,48.8387389]}},{"type":"Feature","id":"node/3660800072","properties":{"amenity":"pub","check_date":"2022-09-30","email":"cafedunkerque@gmail.com","name":"Dunkerque","opening_hours":"Mo-Su 08:00-02:00","outdoor_seating":"yes","phone":"+33 1 42 81 11 34","restaurant":"yes","source":"Observation personnelle","survey:date":"2018-05-05","website":"http://cafedunkerque.com/","id":"node/3660800072"},"geometry":{"type":"Point","coordinates":[2.3464114,48.8817435]}},{"type":"Feature","id":"node/3688065163","properties":{"amenity":"pub","check_date":"2023-03-18","name":"Ti'Cap","id":"node/3688065163"},"geometry":{"type":"Point","coordinates":[2.3603126,48.8680761]}},{"type":"Feature","id":"node/3696979876","properties":{"amenity":"pub","check_date":"2023-06-10","name":"Le Bistro","source":"survey","id":"node/3696979876"},"geometry":{"type":"Point","coordinates":[2.2953836,48.8141313]}},{"type":"Feature","id":"node/3701100002","properties":{"amenity":"pub","indoor_seating":"yes","name":"Le Sub Pigalle","outdoor_seating":"no","source":"survey","id":"node/3701100002"},"geometry":{"type":"Point","coordinates":[2.3270155,48.8831728]}},{"type":"Feature","id":"node/3764314582","properties":{"addr:housenumber":"22","addr:postcode":"75013","addr:street":"Rue de la Butte-aux-Cailles","amenity":"pub","cuisine":"french","email":"lestanneurs13@gmail.com","name":"Les Tanneurs de la Butte","opening_hours":"Mo-Su 09:00-23:30","phone":"+33 1 45 89 22 11","website":"https://les-tanneurs-de-la-butte-restaurant-paris13.eatbu.com/?lang=fr","id":"node/3764314582"},"geometry":{"type":"Point","coordinates":[2.3502058,48.8278379]}},{"type":"Feature","id":"node/3778436917","properties":{"addr:city":"Paris","addr:housenumber":"93","addr:postcode":"75017","addr:street":"Rue de Rome","amenity":"pub","name":"Cafe La Casa","id":"node/3778436917"},"geometry":{"type":"Point","coordinates":[2.3190405,48.8832896]}},{"type":"Feature","id":"node/3830223631","properties":{"amenity":"pub","name":"Village Delice","source":"survey","id":"node/3830223631"},"geometry":{"type":"Point","coordinates":[2.3906477,48.8183873]}},{"type":"Feature","id":"node/3859703847","properties":{"amenity":"pub","name":"Le Royal Masséna Navega's","source":"survey","id":"node/3859703847"},"geometry":{"type":"Point","coordinates":[2.3768979,48.823814]}},{"type":"Feature","id":"node/3897093925","properties":{"amenity":"pub","name":"Chez Pan","source":"survey","id":"node/3897093925"},"geometry":{"type":"Point","coordinates":[2.2943766,48.8489807]}},{"type":"Feature","id":"node/3916696372","properties":{"addr:city":"Paris","addr:postcode":"75001","amenity":"pub","indoor_seating":"yes","microbrewery":"yes","name":"Brasserie du Roule","outdoor_seating":"yes","smoking":"outside","wheelchair":"limited","id":"node/3916696372"},"geometry":{"type":"Point","coordinates":[2.3436809,48.8603946]}},{"type":"Feature","id":"node/3927836576","properties":{"amenity":"pub","atm":"no","brewery":"Guinness;Saint-Omer;Kilkenny","check_date":"2023-04-11","contact:phone":"+33 1 48 78 06 98","food":"yes","happy_hours":"Mo-Sa 18:00-22:00","internet_access":"wlan","name":"Hide out Station","outdoor_seating":"yes","smoking":"outside","takeaway":"no","toilets:wheelchair":"no","wheelchair":"limited","id":"node/3927836576"},"geometry":{"type":"Point","coordinates":[2.3546339,48.879256]}},{"type":"Feature","id":"node/3928170250","properties":{"amenity":"pub","check_date":"2024-02-08","name":"Le Dix bar","id":"node/3928170250"},"geometry":{"type":"Point","coordinates":[2.3654068,48.8673231]}},{"type":"Feature","id":"node/3934696307","properties":{"amenity":"pub","name":"Le Relais Carnot","source":"Survey","wheelchair":"no","id":"node/3934696307"},"geometry":{"type":"Point","coordinates":[2.2279505,48.8747685]}},{"type":"Feature","id":"node/3945050535","properties":{"amenity":"pub","email":"contact@lithographe.fr","indoor_seating":"yes","level":"0","name":"Le Lithographe","outdoor_seating":"yes","phone":"+33 1 77 13 26 08","website":"http://www.lelithographe.fr/","wheelchair":"yes","id":"node/3945050535"},"geometry":{"type":"Point","coordinates":[2.3303818,48.839012]}},{"type":"Feature","id":"node/3959978540","properties":{"amenity":"pub","level":"0","name":"Le Salers","outdoor_seating":"yes","source":"survey","toilets":"yes","toilets:access":"customers","id":"node/3959978540"},"geometry":{"type":"Point","coordinates":[2.3746156,48.8256842]}},{"type":"Feature","id":"node/3986299232","properties":{"addr:city":"Paris","addr:housenumber":"34","addr:postcode":"75019","addr:street":"Quai de la Marne","amenity":"pub","email":"contact@maisonbecquey.com","name":"Maison Becquey","opening_hours":"08:00-02:00","outdoor_seating":"sidewalk","phone":"+33 1 45 26 97 79","restaurant":"yes","smoking":"outside","id":"node/3986299232"},"geometry":{"type":"Point","coordinates":[2.3841063,48.8902652]}},{"type":"Feature","id":"node/4047773994","properties":{"amenity":"pub","name":"L'Aviation","phone":"+33 1 40 93 05 74","tobacco":"yes","id":"node/4047773994"},"geometry":{"type":"Point","coordinates":[2.2737684,48.8281253]}},{"type":"Feature","id":"node/4068475107","properties":{"amenity":"pub","brewery":"Guinness","indoor_seating":"yes","name":"Guinness Tavern","outdoor_seating":"yes","smoking":"outside","wheelchair":"no","id":"node/4068475107"},"geometry":{"type":"Point","coordinates":[2.3483646,48.8595886]}},{"type":"Feature","id":"node/4205665893","properties":{"addr:city":"Paris","amenity":"pub","indoor_seating":"yes","name":"À la Cloche des Halles","outdoor_seating":"yes","source":"survey","id":"node/4205665893"},"geometry":{"type":"Point","coordinates":[2.3418312,48.864208]}},{"type":"Feature","id":"node/4326240395","properties":{"amenity":"pub","check_date":"2023-04-16","name":"Le Porte-Pot","id":"node/4326240395"},"geometry":{"type":"Point","coordinates":[2.3445069,48.8513519]}},{"type":"Feature","id":"node/4349520793","properties":{"amenity":"pub","name":"Tabac de la République","id":"node/4349520793"},"geometry":{"type":"Point","coordinates":[2.3131052,48.902842]}},{"type":"Feature","id":"node/4350111089","properties":{"amenity":"pub","name":"Le Bistrot d'à Côté","id":"node/4350111089"},"geometry":{"type":"Point","coordinates":[2.2989601,48.8815184]}},{"type":"Feature","id":"node/4364282596","properties":{"addr:city":"Paris","addr:housenumber":"24","addr:postcode":"75017","addr:street":"Rue Boursault","amenity":"pub","name":"Pistache - Le Petit Apéro","outdoor_seating":"yes","takeaway":"yes","id":"node/4364282596"},"geometry":{"type":"Point","coordinates":[2.3202071,48.8839113]}},{"type":"Feature","id":"node/4428897900","properties":{"addr:city":"Paris","addr:housenumber":"92","addr:postcode":"75018","addr:street":"Boulevard de Clichy","amenity":"pub","check_date":"2023-11-27","contact:phone":"+33 1 53 09 08 49","contact:website":"https://www.osullivans-pubs.com/pub-irlandais/by-the-mill/","indoor_seating":"yes","name":"O'Sullivans By The Mill","opening_hours":"Mo 00:00-06:00,13:00-24:00; Tu-Fr 00:00-05:00,13:00-24:00; Sa,Su 00:00-06:00,12:00-24:00","operator":"O'Sullivans","outdoor_seating":"yes","id":"node/4428897900"},"geometry":{"type":"Point","coordinates":[2.3320336,48.8841807]}},{"type":"Feature","id":"node/4444592860","properties":{"amenity":"pub","check_date":"2024-01-06","check_date:opening_hours":"2021-09-10","contact:housenumber":"16","contact:postcode":"75019","contact:street":"Quai de la Marne","cuisine":"pizza;coffee_shop","diet:vegan":"yes","email":"cafeodilon@gmail.com","internet_access":"wlan","name":"Café Odilon","opening_hours":"We-Su 12:00-02:00","phone":"+33140361822","wheelchair":"yes","id":"node/4444592860"},"geometry":{"type":"Point","coordinates":[2.3818432,48.8891488]}},{"type":"Feature","id":"node/4470074389","properties":{"amenity":"pub","fixme":"C'est le \"Café Lux\" maintenant ?","name":"chez Hipodene","name:fr":"chez Hipodene","id":"node/4470074389"},"geometry":{"type":"Point","coordinates":[2.3788905,48.8633332]}},{"type":"Feature","id":"node/4472952460","properties":{"amenity":"pub","check_date":"2024-01-26","indoor_seating":"yes","name":"À la place Saint-Georges","outdoor_seating":"yes","source":"survey","id":"node/4472952460"},"geometry":{"type":"Point","coordinates":[2.3376271,48.8781483]}},{"type":"Feature","id":"node/4494623389","properties":{"addr:street":"Boulevard du Général Leclerc","amenity":"pub","name":"Le Bistrot du Marché","name:fr":"Le Bistrot du Marché","id":"node/4494623389"},"geometry":{"type":"Point","coordinates":[2.3148301,48.9018324]}},{"type":"Feature","id":"node/4523759346","properties":{"amenity":"pub","name":"Le Café Ponce","source":"survey","wheelchair":"limited","id":"node/4523759346"},"geometry":{"type":"Point","coordinates":[2.2969269,48.8792092]}},{"type":"Feature","id":"node/4622367702","properties":{"amenity":"pub","name":"L'Escale","source":"Observation personnelle","id":"node/4622367702"},"geometry":{"type":"Point","coordinates":[2.361276,48.8942123]}},{"type":"Feature","id":"node/4622393932","properties":{"amenity":"pub","name":"Le week-end","source":"Observation personnelle","id":"node/4622393932"},"geometry":{"type":"Point","coordinates":[2.360035,48.8876522]}},{"type":"Feature","id":"node/4705730792","properties":{"amenity":"pub","name":"Bistrot de Clichy","name:fr":"Bistrot de Clichy","id":"node/4705730792"},"geometry":{"type":"Point","coordinates":[2.3050159,48.8998517]}},{"type":"Feature","id":"node/4743690632","properties":{"amenity":"pub","indoor_seating":"yes","microbrewery":"yes","name":"L'art du quotidien","outdoor_seating":"yes","id":"node/4743690632"},"geometry":{"type":"Point","coordinates":[2.3111181,48.8851339]}},{"type":"Feature","id":"node/4782966923","properties":{"addr:city":"Paris","addr:housenumber":"51","addr:postcode":"75018","addr:street":"Rue du Chevalier de la Barre","amenity":"pub","name":"La Virgule","theme":"irish","id":"node/4782966923"},"geometry":{"type":"Point","coordinates":[2.342028,48.8870008]}},{"type":"Feature","id":"node/4820458124","properties":{"amenity":"pub","name":"The Irishman","name:fr":"The Irishman","outdoor_seating":"yes","survey:date":"2020-04-22","id":"node/4820458124"},"geometry":{"type":"Point","coordinates":[2.3459818,48.8352127]}},{"type":"Feature","id":"node/4842834156","properties":{"amenity":"pub","name":"À la ville de Provins","source":"survey","id":"node/4842834156"},"geometry":{"type":"Point","coordinates":[2.3581964,48.875561]}},{"type":"Feature","id":"node/4855693223","properties":{"amenity":"pub","name":"Josy Pub","id":"node/4855693223"},"geometry":{"type":"Point","coordinates":[2.337065,48.8769979]}},{"type":"Feature","id":"node/4947011633","properties":{"addr:city":"Paris","addr:housenumber":"62","addr:postcode":"75020","addr:street":"Rue Orfila","amenity":"pub","brewery":"various","name":"La Limite","opening_hours":"Mo-Fr 17:00-02:00; Sa-Su 19:00-02:00","smoking":"outside","id":"node/4947011633"},"geometry":{"type":"Point","coordinates":[2.3977182,48.8668634]}},{"type":"Feature","id":"node/4968226326","properties":{"amenity":"pub","name":"Le Camelia","id":"node/4968226326"},"geometry":{"type":"Point","coordinates":[2.4055264,48.8693621]}},{"type":"Feature","id":"node/4968226338","properties":{"addr:city":"Paris","addr:housenumber":"5","addr:postcode":"75020","addr:street":"Rue du Docteur Paquelin","amenity":"pub","name":"La Brasserie du Quartier","id":"node/4968226338"},"geometry":{"type":"Point","coordinates":[2.4027148,48.8691965]}},{"type":"Feature","id":"node/4968226340","properties":{"amenity":"pub","name":"La Nouvelle Étoile","toilets:wheelchair":"yes","wheelchair":"yes","id":"node/4968226340"},"geometry":{"type":"Point","coordinates":[2.3962158,48.8675061]}},{"type":"Feature","id":"node/4987150021","properties":{"amenity":"pub","name":"Buckingham Bar","id":"node/4987150021"},"geometry":{"type":"Point","coordinates":[2.3337485,48.8689475]}},{"type":"Feature","id":"node/5001825203","properties":{"amenity":"pub","cuisine":"asian","name":"Le Bar des Prés","opening_hours":"12:00-14:30,19:00-23:00","operator":"Cyril Lignac","phone":"+33 1 43 25 87 67","id":"node/5001825203"},"geometry":{"type":"Point","coordinates":[2.3305063,48.8527996]}},{"type":"Feature","id":"node/5001825211","properties":{"amenity":"pub","check_date":"2023-05-20","description":"tabac","name":"Le Quebec","id":"node/5001825211"},"geometry":{"type":"Point","coordinates":[2.3334321,48.8532881]}},{"type":"Feature","id":"node/5003434921","properties":{"amenity":"pub","name":"Le Fontenoy","id":"node/5003434921"},"geometry":{"type":"Point","coordinates":[2.3267487,48.8566851]}},{"type":"Feature","id":"node/5016020385","properties":{"amenity":"pub","contact:city":"Paris","contact:housenumber":"51","contact:phone":"+33 1 42 36 69 73","contact:postcode":"75001","contact:street":"Rue de l'Arbre Sec","indoor_seating":"yes","name":"A La Claire Fontaine","note":"Chez Bichon Le Lonchamp","outdoor_seating":"yes","smoking":"no","wheelchair":"no","id":"node/5016020385"},"geometry":{"type":"Point","coordinates":[2.3423692,48.8613303]}},{"type":"Feature","id":"node/5026913250","properties":{"addr:city":"Paris","addr:housenumber":"215","addr:postcode":"75019","addr:street":"Rue de Crimée","amenity":"pub","name":"Aux Sports","id":"node/5026913250"},"geometry":{"type":"Point","coordinates":[2.3748435,48.8921592]}},{"type":"Feature","id":"node/5118123275","properties":{"amenity":"pub","name":"Pignon","id":"node/5118123275"},"geometry":{"type":"Point","coordinates":[2.3170505,48.8884473]}},{"type":"Feature","id":"node/5118362098","properties":{"addr:housenumber":"21","addr:street":"Rue Boursault","amenity":"pub","cocktails":"yes","name":"Pistache - Le Petit Cocktail","id":"node/5118362098"},"geometry":{"type":"Point","coordinates":[2.3200475,48.8837951]}},{"type":"Feature","id":"node/5119047868","properties":{"amenity":"pub","contact:city":"Paris","contact:housenumber":"62","contact:postcode":"75017","contact:street":"Rue Legendre","cuisine":"argentinian","indoor_seating":"yes","name":"Le Progrès","opening_hours":"Tu-Fr 09:30-02:00, Sa 11:00-02:00","outdoor_seating":"no","wheelchair":"yes","id":"node/5119047868"},"geometry":{"type":"Point","coordinates":[2.3165651,48.8854272]}},{"type":"Feature","id":"node/5138118324","properties":{"addr:city":"Paris","addr:housenumber":"97","addr:postcode":"75017","addr:street":"Rue des Dames","amenity":"pub","name":"La Maison","opening_hours":"Tu-Sa 17:00-02:00","wheelchair":"no","id":"node/5138118324"},"geometry":{"type":"Point","coordinates":[2.318513,48.8830526]}},{"type":"Feature","id":"node/5147135721","properties":{"amenity":"pub","contact:city":"Paris","contact:housenumber":"32","contact:postcode":"75017","contact:street":"Rue Legendre","indoor_seating":"yes","name":"Chez Léon","outdoor_seating":"no","wheelchair":"no","id":"node/5147135721"},"geometry":{"type":"Point","coordinates":[2.3144208,48.8841674]}},{"type":"Feature","id":"node/5154229969","properties":{"amenity":"pub","name":"Le Petit Balcon","id":"node/5154229969"},"geometry":{"type":"Point","coordinates":[2.3854695,48.8687698]}},{"type":"Feature","id":"node/5238177302","properties":{"amenity":"pub","check_date:opening_hours":"2023-03-05","name":"Les Grands Moulins","opening_hours:signed":"no","outdoor_seating":"yes","source":"Observations personnelles","id":"node/5238177302"},"geometry":{"type":"Point","coordinates":[2.3983589,48.8964262]}},{"type":"Feature","id":"node/5245794392","properties":{"amenity":"pub","name":"L'Aigle","opening_hours":"Tu-Sa 10:00-15:00,19:00-23:00","id":"node/5245794392"},"geometry":{"type":"Point","coordinates":[2.3853014,48.8494724]}},{"type":"Feature","id":"node/5295521924","properties":{"amenity":"pub","name":"Corcoran's Irish Pub","id":"node/5295521924"},"geometry":{"type":"Point","coordinates":[2.2359105,48.8249703]}},{"type":"Feature","id":"node/5317135443","properties":{"amenity":"pub","name":"Pousse Café","id":"node/5317135443"},"geometry":{"type":"Point","coordinates":[2.248721,48.8320985]}},{"type":"Feature","id":"node/5323735690","properties":{"amenity":"pub","check_date":"2024-02-01","indoor_seating":"yes","name":"Le Nid – Cocon Ludique","opening_hours":"PH,Mo 17:30-01:00; PH,Tu-Sa 13:30-01:00; PH,Su 14:30-22:00","outdoor_seating":"no","phone":"+33 7 82 75 23 00","shop":"games","smoking":"no","website":"http://lenid-coconludique.com/","wheelchair":"yes","id":"node/5323735690"},"geometry":{"type":"Point","coordinates":[2.3530105,48.8644391]}},{"type":"Feature","id":"node/5323735692","properties":{"amenity":"pub","check_date":"2024-01-26","indoor_seating":"yes","name":"Le Nid - Cocon Ludique","opening_hours":"Tu-Fr 18:30-01:00; Sa 14:00-01:00; Su 14:00-22:00","outdoor_seating":"no","shop":"games","smoking":"no","website":"http://lenid-coconludique.com/","wheelchair":"no","id":"node/5323735692"},"geometry":{"type":"Point","coordinates":[2.3536029,48.864196]}},{"type":"Feature","id":"node/5367839877","properties":{"amenity":"pub","name":"Le Petit Pasteur","id":"node/5367839877"},"geometry":{"type":"Point","coordinates":[2.3092854,48.8395493]}},{"type":"Feature","id":"node/5422621494","properties":{"amenity":"pub","contact:city":"Paris","contact:housenumber":"194","contact:postcode":"75015","contact:street":"Rue de la Croix Nivert","name":"L’Initial","opening_hours":"Mo-Th 17:00-02:00, Fr-Sa 17:00-04:30","id":"node/5422621494"},"geometry":{"type":"Point","coordinates":[2.2893141,48.8386672]}},{"type":"Feature","id":"node/5440688586","properties":{"amenity":"pub","name":"Tempo","id":"node/5440688586"},"geometry":{"type":"Point","coordinates":[2.3182175,48.8889224]}},{"type":"Feature","id":"node/5448612933","properties":{"amenity":"pub","contact:city":"Paris","contact:housenumber":"9","contact:postcode":"75017","contact:street":"Rue du Général Lanrezac","name":"Mojo","id":"node/5448612933"},"geometry":{"type":"Point","coordinates":[2.2941011,48.8764987]}},{"type":"Feature","id":"node/5492875889","properties":{"amenity":"pub","name":"Le Nova","id":"node/5492875889"},"geometry":{"type":"Point","coordinates":[2.3242029,48.888443]}},{"type":"Feature","id":"node/5494428377","properties":{"amenity":"pub","name":"Royal Clichy","id":"node/5494428377"},"geometry":{"type":"Point","coordinates":[2.32456,48.8878962]}},{"type":"Feature","id":"node/5536226900","properties":{"addr:city":"Puteaux","addr:housenumber":"30","addr:postcode":"92800","addr:street":"Rue Marius Jacotot","amenity":"pub","email":"info@oriental-spirit.com","internet_access":"wlan","name":"Oriental Spirit","opening_hours":"Mo-Su 14:00-24:00","website":"http://info@oriental-spirit.com","id":"node/5536226900"},"geometry":{"type":"Point","coordinates":[2.2411323,48.8838481]}},{"type":"Feature","id":"node/5550110632","properties":{"amenity":"pub","name":"Café Gambetta","id":"node/5550110632"},"geometry":{"type":"Point","coordinates":[2.4020194,48.8149012]}},{"type":"Feature","id":"node/5569041150","properties":{"amenity":"pub","contact:housenumber":"55","contact:phone":"+33 1 47 63 15 84","contact:postcode":"75017","contact:street":"Boulevard Pereire","contact:website":"https://m.facebook.com/Bar-Brasserie-Le-Tocqueville-1783110498422483/","name":"Le Tocqueville","opening_hours":"Mo-Sa 07:00-19:00","id":"node/5569041150"},"geometry":{"type":"Point","coordinates":[2.3074507,48.8874028]}},{"type":"Feature","id":"node/5585039391","properties":{"addr:city":"Paris","addr:housenumber":"79","addr:postcode":"75011","addr:street":"Rue Saint-Maur","amenity":"pub","name":"Maison BapBap","opening_hours":"Mo-Fr 17:00-19:00; Sa 14:30-19:00","website":"https://www.bapbap.paris","id":"node/5585039391"},"geometry":{"type":"Point","coordinates":[2.3786745,48.8636313]}},{"type":"Feature","id":"node/5604814828","properties":{"addr:housenumber":"49","addr:postcode":"75020","addr:street":"Rue Pixérécourt","amenity":"pub","contact:housenumber":"49","contact:street":"Rue Pixérécourt","name":"El Zokalo","opening_hours":"Mo-Sa 17:00-02:00; Su 17:00-00:30","source":"survey","id":"node/5604814828"},"geometry":{"type":"Point","coordinates":[2.3960322,48.8728446]}},{"type":"Feature","id":"node/5619267600","properties":{"amenity":"pub","check_date":"2023-08-17","email":"contact@liquiderie.com","name":"Liquiderie","outdoor_seating":"yes","payment:credit_cards":"yes","payment:mastercard":"yes","payment:visa":"yes","phone":"+33 1 73 74 79 48","website":"https://www.facebook.com/liquiderie/","id":"node/5619267600"},"geometry":{"type":"Point","coordinates":[2.3716659,48.8664059]}},{"type":"Feature","id":"node/5654058578","properties":{"amenity":"pub","name":"Le Virginie","opening_hours":"Mo-Fr 06:30-21:00; Sa 08:00-21:00; Su 09:00-13:30","id":"node/5654058578"},"geometry":{"type":"Point","coordinates":[2.4322394,48.8450456]}},{"type":"Feature","id":"node/5712090157","properties":{"addr:housenumber":"4","addr:street":"Rue Saint-Denis","amenity":"pub","brewery":"chimay","contact:facebook":"https://www.facebook.com/autrappisteparis/","cuisine":"french","indoor_seating":"yes","internet_access":"wlan","name":"Au Trappiste","opening_hours":"Mo-Su 08:00-02:00","outdoor_seating":"yes","phone":"+33 1 42 33 08 50","toilets:wheelchair":"no","website":"http://autrappiste.fr","wheelchair":"limited","wheelchair:description":"Toilettes à l'étage","id":"node/5712090157"},"geometry":{"type":"Point","coordinates":[2.3475599,48.85829]}},{"type":"Feature","id":"node/5864951036","properties":{"amenity":"pub","happy_hours":"15:00-20:00","name":"The Highlander","website":"http://pubhighlander.com/","id":"node/5864951036"},"geometry":{"type":"Point","coordinates":[2.3398038,48.856041]}},{"type":"Feature","id":"node/5871572630","properties":{"amenity":"pub","description":"Bar d’improvisation, salle au sous-sol d’une cinquantaine de places. Accès sur conso","name":"Improvi'bar","opening_hours":"Mo-Fr 17:30-00:30; Sa 15:00-00:30; Su 15:00-00:00","wheelchair":"no","id":"node/5871572630"},"geometry":{"type":"Point","coordinates":[2.3543602,48.8605554]}},{"type":"Feature","id":"node/6031967389","properties":{"amenity":"pub","name":"Les Enfants Terribles","id":"node/6031967389"},"geometry":{"type":"Point","coordinates":[2.3202553,48.8907139]}},{"type":"Feature","id":"node/6061833539","properties":{"amenity":"pub","name":"Le 2bis Café","id":"node/6061833539"},"geometry":{"type":"Point","coordinates":[2.3522802,48.8477191]}},{"type":"Feature","id":"node/6095596487","properties":{"addr:city":"Paris","addr:housenumber":"24","addr:postcode":"75019","addr:street":"Avenue de Flandre","amenity":"pub","name":"Le Paris Flandre","id":"node/6095596487"},"geometry":{"type":"Point","coordinates":[2.3709022,48.8855208]}},{"type":"Feature","id":"node/6095597186","properties":{"addr:city":"Paris","addr:housenumber":"34","addr:postcode":"75019","addr:street":"Avenue de Flandre","amenity":"pub","indoor_seating":"yes","name":"Le Longchamp","outdoor_seating":"yes","id":"node/6095597186"},"geometry":{"type":"Point","coordinates":[2.3719472,48.8863856]}},{"type":"Feature","id":"node/6494905341","properties":{"amenity":"pub","name":"Au Petit Bar","id":"node/6494905341"},"geometry":{"type":"Point","coordinates":[2.3225909,48.8914046]}},{"type":"Feature","id":"node/6904911119","properties":{"air_conditioning":"yes","amenity":"pub","indoor_seating":"yes","name":"La Civette","outdoor_seating":"no","payment:credit_cards":"yes","payment:debit_cards":"yes","smoking":"no","wheelchair":"yes","id":"node/6904911119"},"geometry":{"type":"Point","coordinates":[2.3137397,48.8314743]}},{"type":"Feature","id":"node/6973044973","properties":{"amenity":"pub","name":"Edward & Sons","id":"node/6973044973"},"geometry":{"type":"Point","coordinates":[2.3387069,48.8824065]}},{"type":"Feature","id":"node/7144944190","properties":{"addr:city":"Paris","addr:housenumber":"46","addr:postcode":"75001","addr:street":"Rue des Lombards","amenity":"pub","brewery":"Guinness;saint Omer;tripel Karmeliet","indoor_seating":"yes","name":"Hide Out","outdoor_seating":"yes","smoking":"outside","wheelchair":"yes","id":"node/7144944190"},"geometry":{"type":"Point","coordinates":[2.3483954,48.8597224]}},{"type":"Feature","id":"node/7362736078","properties":{"amenity":"pub","microbrewery":"yes","name":"Le Mont Vallon","id":"node/7362736078"},"geometry":{"type":"Point","coordinates":[2.3213785,48.8767274]}},{"type":"Feature","id":"node/7472967386","properties":{"amenity":"pub","check_date":"2023-05-06","name":"Express 14","id":"node/7472967386"},"geometry":{"type":"Point","coordinates":[2.325463,48.8354053]}},{"type":"Feature","id":"node/7670969855","properties":{"amenity":"pub","name":"Au caveau Montpensier","id":"node/7670969855"},"geometry":{"type":"Point","coordinates":[2.3366056,48.8646228]}},{"type":"Feature","id":"node/7710236060","properties":{"amenity":"pub","name":"Le Mondain","id":"node/7710236060"},"geometry":{"type":"Point","coordinates":[2.3348568,48.8802211]}},{"type":"Feature","id":"node/7731671068","properties":{"amenity":"pub","name":"Les gentlemen","opening_hours":"Mo-Fr 08:00-21:00","id":"node/7731671068"},"geometry":{"type":"Point","coordinates":[2.2303412,48.8945481]}},{"type":"Feature","id":"node/7731678927","properties":{"amenity":"pub","name":"Mosai","id":"node/7731678927"},"geometry":{"type":"Point","coordinates":[2.2300277,48.8940787]}},{"type":"Feature","id":"node/7732531978","properties":{"amenity":"pub","description":"Bière et Tartines","happy_hours":"Tu-Sa 17:00-20:00","name":"Murphy","opening_hours":"Tu-Sa 17:00-02:00","website":"https://murphy.paris","id":"node/7732531978"},"geometry":{"type":"Point","coordinates":[2.3235546,48.8405137]}},{"type":"Feature","id":"node/7753551487","properties":{"amenity":"pub","indoor_seating":"yes","name":"Au Camélia","outdoor_seating":"yes","id":"node/7753551487"},"geometry":{"type":"Point","coordinates":[2.3189686,48.8882574]}},{"type":"Feature","id":"node/7904731382","properties":{"amenity":"pub","name":"Les colonnes","id":"node/7904731382"},"geometry":{"type":"Point","coordinates":[2.399668,48.8476361]}},{"type":"Feature","id":"node/7995285634","properties":{"addr:housenumber":"69","addr:street":"Rue Pasteur","amenity":"pub","name":"Timgad","id":"node/7995285634"},"geometry":{"type":"Point","coordinates":[2.4606679,48.8477055]}},{"type":"Feature","id":"node/7995599841","properties":{"amenity":"pub","name":"Tigermilk","id":"node/7995599841"},"geometry":{"type":"Point","coordinates":[2.3396922,48.8765943]}},{"type":"Feature","id":"node/7995703468","properties":{"amenity":"pub","name":"La perle noire","survey:date":"2020-09","id":"node/7995703468"},"geometry":{"type":"Point","coordinates":[2.3209447,48.8737194]}},{"type":"Feature","id":"node/7995899111","properties":{"amenity":"pub","name":"Chez Toto","survey:date":"2020-10-10","id":"node/7995899111"},"geometry":{"type":"Point","coordinates":[2.3199374,48.8858112]}},{"type":"Feature","id":"node/7995899127","properties":{"amenity":"pub","check_date":"2024-02-13","indoor_seating":"yes","name":"Le petit Batignolles","outdoor_seating":"no","id":"node/7995899127"},"geometry":{"type":"Point","coordinates":[2.3203481,48.8853809]}},{"type":"Feature","id":"node/8060012226","properties":{"amenity":"pub","name":"Rosemarino","id":"node/8060012226"},"geometry":{"type":"Point","coordinates":[2.384273,48.8551192]}},{"type":"Feature","id":"node/8139982096","properties":{"addr:city":"Paris","addr:housenumber":"2","addr:postcode":"75005","addr:street":"Place du Panthéon","amenity":"pub","food":"yes","internet_access":"wlan","name":"The Bombardier","opening_hours":"Mo-Su 12:00-02:00","phone":"+33143547922","website":"http://www.bombardierpub.fr/","wheelchair":"yes","id":"node/8139982096"},"geometry":{"type":"Point","coordinates":[2.347702,48.8468643]}},{"type":"Feature","id":"node/8540455879","properties":{"amenity":"pub","indoor_seating":"yes","microbrewery":"yes","name":"Paris saint-germain","outdoor_seating":"yes","id":"node/8540455879"},"geometry":{"type":"Point","coordinates":[2.3505928,48.8497699]}},{"type":"Feature","id":"node/8614950855","properties":{"air_conditioning":"yes","amenity":"pub","food":"yes","indoor_seating":"yes","name":"N & C","outdoor_seating":"yes","payment:credit_cards":"yes","payment:debit_cards":"yes","smoking":"outside","wheelchair":"yes","id":"node/8614950855"},"geometry":{"type":"Point","coordinates":[2.3185877,48.8300052]}},{"type":"Feature","id":"node/8638016560","properties":{"addr:city":"Paris","addr:housenumber":"59","addr:postcode":"75018","addr:street":"Rue Ramey","amenity":"pub","brewery":"yes","facebook":"https://facebook.com/dikkenekindeed/","name":"Dikkenek","opening_hours":"Mo-Su 16:00-02:00","id":"node/8638016560"},"geometry":{"type":"Point","coordinates":[2.3454659,48.8904145]}},{"type":"Feature","id":"node/8705957571","properties":{"amenity":"pub","name":"Playoff Montparnasse","id":"node/8705957571"},"geometry":{"type":"Point","coordinates":[2.3175891,48.8417342]}},{"type":"Feature","id":"node/8845870397","properties":{"addr:housenumber":"32","addr:street":"Rue Drouot","amenity":"pub","description":"Bar proposant bières, cocktails et alcools sélectionnés ainsi que des planches à partager et des sandwichs travaillés dans un décor digne d’un vidéoclub des années 90.","name":"Le Magnétoscope","opening_hours":"Mo-Fr 15:00-02:00; Sa 17:00-02:00","website":"https://www.lemagnetoscope.com/bar","id":"node/8845870397"},"geometry":{"type":"Point","coordinates":[2.3409043,48.8746941]}},{"type":"Feature","id":"node/8846706372","properties":{"amenity":"pub","name":"Caravane","source":"Observations personnelles","id":"node/8846706372"},"geometry":{"type":"Point","coordinates":[2.3624857,48.888017]}},{"type":"Feature","id":"node/8908255126","properties":{"addr:city":"Paris","addr:housenumber":"17","addr:postcode":"75018","addr:street":"Rue Duc","amenity":"pub","cuisine":"french","facebook":"https://facebook.com/Le-Petit-Duc-1458900247755103/","name":"Le Petit Duc","opening_hours":"Mo-Su 06:00-01:00","phone":"+33 1 46 06 27 47","id":"node/8908255126"},"geometry":{"type":"Point","coordinates":[2.3420793,48.8922737]}},{"type":"Feature","id":"node/8993755060","properties":{"amenity":"pub","name":"Once Coktail bar","id":"node/8993755060"},"geometry":{"type":"Point","coordinates":[2.3898681,48.8503998]}},{"type":"Feature","id":"node/9204695786","properties":{"amenity":"pub","name":"Pile ou Face","id":"node/9204695786"},"geometry":{"type":"Point","coordinates":[2.3358532,48.8813932]}},{"type":"Feature","id":"node/9345072671","properties":{"amenity":"pub","name":"1905","id":"node/9345072671"},"geometry":{"type":"Point","coordinates":[2.3643907,48.8537013]}},{"type":"Feature","id":"node/9470178656","properties":{"addr:city":"Paris","addr:housenumber":"39","addr:postcode":"75006","addr:street":"Boulevard du Montparnasse","amenity":"pub","facebook":"https://www.facebook.com/dreamcafemontparnasse/","happy_hours":"15:00-24:00","name":"Le Dream Café","opening_hours":"Mo-Su 09:00-02:00","phone":"+33 1 71 73 95 00","id":"node/9470178656"},"geometry":{"type":"Point","coordinates":[2.3213428,48.8449384]}},{"type":"Feature","id":"node/9514229990","properties":{"addr:housenumber":"13","addr:postcode":"75011","addr:street":"Boulevard de Ménilmontant","amenity":"pub","brewery":"yes","name":"Le Purgatoire","id":"node/9514229990"},"geometry":{"type":"Point","coordinates":[2.3888465,48.8592707]}},{"type":"Feature","id":"node/9651661035","properties":{"addr:city":"Paris","addr:housenumber":"46","addr:postcode":"75005","addr:street":"Rue de la Montagne Sainte-Geneviève","amenity":"pub","check_date":"2023-10-30","name":"Le Violon Dingue","opening_hours":"Su-Mo off; Tu-We 18:00-04:30; Th-Sa 18:00-05:00","id":"node/9651661035"},"geometry":{"type":"Point","coordinates":[2.348421,48.8476352]}},{"type":"Feature","id":"node/9773853175","properties":{"addr:city":"Paris","addr:housenumber":"17","addr:postcode":"75006","addr:street":"Rue Princesse","amenity":"pub","name":"Bedford Arms","opening_hours":"Mo 22:00-06:00, Tu-Sa 21:00-06:00, Su 23:00-06:00","id":"node/9773853175"},"geometry":{"type":"Point","coordinates":[2.3346272,48.8519526]}},{"type":"Feature","id":"node/9887690194","properties":{"amenity":"pub","happy_hours":"15:00-02:00","name":"La Vache Folle","id":"node/9887690194"},"geometry":{"type":"Point","coordinates":[2.3391337,48.854604]}},{"type":"Feature","id":"node/9905753635","properties":{"amenity":"pub","happy_hours":"Mo-Fr 17:00-20:00","name":"Pub St Germain","opening_hours":"12:00-02:00, Th-Sa 12:00-06:00","opening_hours:kitchen":"12:00-02:00, Th-Sa 12:00-04:30","website":"https://www.pubsaintgermain.com","id":"node/9905753635"},"geometry":{"type":"Point","coordinates":[2.3388398,48.8528765]}},{"type":"Feature","id":"node/9927507618","properties":{"amenity":"pub","name":"Oberkampf","id":"node/9927507618"},"geometry":{"type":"Point","coordinates":[2.3807483,48.8663313]}},{"type":"Feature","id":"node/9964266792","properties":{"addr:city":"Paris","addr:housenumber":"4","addr:postcode":"75011","addr:street":"Avenue Philippe Auguste","amenity":"pub","name":"Le Déclic Pub","id":"node/9964266792"},"geometry":{"type":"Point","coordinates":[2.3953669,48.8496874]}},{"type":"Feature","id":"node/9974568041","properties":{"amenity":"pub","name":"Le bar de l'ourcq","id":"node/9974568041"},"geometry":{"type":"Point","coordinates":[2.3864134,48.887195]}},{"type":"Feature","id":"node/9976748160","properties":{"amenity":"pub","name":"L'évasion","opening_hours":"Mo-Su 12:00-14:30,19:30-22:00","id":"node/9976748160"},"geometry":{"type":"Point","coordinates":[2.3191683,48.87517]}},{"type":"Feature","id":"node/9980638255","properties":{"amenity":"pub","id":"node/9980638255"},"geometry":{"type":"Point","coordinates":[2.3759818,48.893449]}},{"type":"Feature","id":"node/9980640686","properties":{"amenity":"pub","name":"L'écluse","id":"node/9980640686"},"geometry":{"type":"Point","coordinates":[2.3736024,48.8938751]}},{"type":"Feature","id":"node/10002259617","properties":{"addr:housenumber":"88","addr:street":"Rue de Ménilmontant","amenity":"pub","description":"En plein air Jardin de la Bellevilloise","name":"88 Menilmontant","opening_hours":"We-Th 16:00-22:00; Fr 16:00-23:00; Sa 13:00-23:00; Su 13:00-22:00","id":"node/10002259617"},"geometry":{"type":"Point","coordinates":[2.3915606,48.8688413]}},{"type":"Feature","id":"node/10013233112","properties":{"addr:housenumber":"38","addr:street":"Avenue Léon Gaumont","amenity":"pub","cuisine":"pizza;japanese","name":"Le Patio","opening_hours":"Mo-Sa 10:00-00:00; Su 10:00-22:00","wheelchair":"no","id":"node/10013233112"},"geometry":{"type":"Point","coordinates":[2.4163646,48.8518996]}},{"type":"Feature","id":"node/10022159403","properties":{"amenity":"pub","name":"Le Balzac","id":"node/10022159403"},"geometry":{"type":"Point","coordinates":[2.3008287,48.8741875]}},{"type":"Feature","id":"node/10047610731","properties":{"amenity":"pub","happy_hours":"16:00-20:30","name":"Blue Sky","opening_hours":"10:00-05:00","id":"node/10047610731"},"geometry":{"type":"Point","coordinates":[2.3281489,48.8417986]}},{"type":"Feature","id":"node/10076734481","properties":{"amenity":"pub","name":"Le Relais Chaumont","id":"node/10076734481"},"geometry":{"type":"Point","coordinates":[2.3929003,48.8865323]}},{"type":"Feature","id":"node/10083375264","properties":{"addr:housenumber":"3","addr:street":"Rue des Tournelles","amenity":"pub","name":"Les Amoureuses","opening_hours":"We-Su 15:00-00:00","id":"node/10083375264"},"geometry":{"type":"Point","coordinates":[2.3672392,48.8539414]}},{"type":"Feature","id":"node/10087011985","properties":{"addr:housenumber":"20","addr:street":"Rue Saulnier","amenity":"pub","name":"Le Klink","opening_hours":"Tu-Sa 18:00-02:00","phone":"+33 6 19 29 48 15","website":"https://www.leklink.fr/","id":"node/10087011985"},"geometry":{"type":"Point","coordinates":[2.3445351,48.8756439]}},{"type":"Feature","id":"node/10107159618","properties":{"amenity":"pub","name":"Tchou Tchou Station verte","outdoor_seating":"yes","source":"GPS","id":"node/10107159618"},"geometry":{"type":"Point","coordinates":[2.3629229,48.8971095]}},{"type":"Feature","id":"node/10180211102","properties":{"amenity":"pub","changing_table":"no","name":"Le mal est fait","smoking":"no","toilets":"yes","toilets:access":"customers","toilets:disposal":"flush","toilets:handwashing":"yes","toilets:paper_supplied":"yes","toilets:position":"seated","toilets:wheelchair":"no","id":"node/10180211102"},"geometry":{"type":"Point","coordinates":[2.3712977,48.8559069]}},{"type":"Feature","id":"node/10201809846","properties":{"addr:housenumber":"57","addr:street":"rue des gravilliers","amenity":"pub","cocktails":"yes","description":"Bar à cocktails","indoor_seating":"yes","name":"Spootnik","opening_hours":"Tu-Sa 19:00-23:00","outdoor_seating":"no","smoking":"no","website":"https://datshaunderground.com/fr#spootnik","id":"node/10201809846"},"geometry":{"type":"Point","coordinates":[2.3548544,48.8643214]}},{"type":"Feature","id":"node/10236381329","properties":{"addr:city":"Paris","addr:housenumber":"7","addr:postcode":"75020","addr:street":"Rue Sorbier","amenity":"pub","name":"Hazy","id":"node/10236381329"},"geometry":{"type":"Point","coordinates":[2.3902559,48.8682289]}},{"type":"Feature","id":"node/10649530305","properties":{"amenity":"pub","name":"Les 3 frangins","id":"node/10649530305"},"geometry":{"type":"Point","coordinates":[2.4017044,48.814436]}},{"type":"Feature","id":"node/10705447960","properties":{"addr:housenumber":"5","addr:street":"Rue Poissonnière","amenity":"pub","name":"Vignes en ville","website":"https://vignesenville.fr/","id":"node/10705447960"},"geometry":{"type":"Point","coordinates":[2.347705,48.8692454]}},{"type":"Feature","id":"node/10829474927","properties":{"addr:housenumber":"1","addr:street":"Rue Paul Albert","amenity":"pub","name":"Au Bercail","phone":"0983740929","id":"node/10829474927"},"geometry":{"type":"Point","coordinates":[2.3449801,48.8865204]}},{"type":"Feature","id":"node/10870142370","properties":{"amenity":"pub","name":"Au bon coin","id":"node/10870142370"},"geometry":{"type":"Point","coordinates":[2.3889986,48.9034559]}},{"type":"Feature","id":"node/11062522210","properties":{"addr:housenumber":"1","addr:street":"Port de Bercy-aval","amenity":"pub","name":"Cargo Container Bar","opening_hours":"We 18:00-23:59; Th-Sa 00:00-02:00, 18:00-23:59; Su 00:00-02:00, 16:00-23:59","id":"node/11062522210"},"geometry":{"type":"Point","coordinates":[2.3805478,48.8344762]}},{"type":"Feature","id":"node/11085574308","properties":{"amenity":"pub","name":"La Cave","id":"node/11085574308"},"geometry":{"type":"Point","coordinates":[2.3149974,48.8774112]}},{"type":"Feature","id":"node/11170035268","properties":{"amenity":"pub","microbrewery":"yes","id":"node/11170035268"},"geometry":{"type":"Point","coordinates":[2.3220293,48.8788241]}},{"type":"Feature","id":"node/11229775660","properties":{"alt_name":"Chez Clint","amenity":"pub","contact:housenumber":"11","contact:phone":"+33 1 42 55 38 73","contact:street":"Rue Joseph de Maistre","level":"0","name":"Le Pub Montmartre","outdoor_seating":"sidewalk","id":"node/11229775660"},"geometry":{"type":"Point","coordinates":[2.3338618,48.88606]}},{"type":"Feature","id":"node/11253930137","properties":{"amenity":"pub","name":"La Barcarolle","id":"node/11253930137"},"geometry":{"type":"Point","coordinates":[2.4077176,48.8371137]}},{"type":"Feature","id":"node/11270089969","properties":{"amenity":"pub","name":"Pub Elysees","id":"node/11270089969"},"geometry":{"type":"Point","coordinates":[2.3055463,48.8696038]}},{"type":"Feature","id":"node/11281536710","properties":{"amenity":"pub","microbrewery":"yes","name":"La Méditerranée","wheelchair":"limited","id":"node/11281536710"},"geometry":{"type":"Point","coordinates":[2.365181,48.8841166]}},{"type":"Feature","id":"node/11403245744","properties":{"addr:street":"Rue de Reuilly","amenity":"pub","name":"Le Rayanais","id":"node/11403245744"},"geometry":{"type":"Point","coordinates":[2.3867517,48.8475771]}},{"type":"Feature","id":"node/11494331420","properties":{"air_conditioning":"no","amenity":"pub","indoor_seating":"yes","microbrewery":"yes","name":"Résidence Forum des Halles","outdoor_seating":"no","smoking":"no","wheelchair":"no","id":"node/11494331420"},"geometry":{"type":"Point","coordinates":[2.3480118,48.8626669]}},{"type":"Feature","id":"node/11494506101","properties":{"amenity":"pub","indoor_seating":"yes","microbrewery":"yes","name":"Pomelo","outdoor_seating":"yes","id":"node/11494506101"},"geometry":{"type":"Point","coordinates":[2.3425756,48.8705875]}}]}